C_ANT,C_VIG,C_MAD,C_NMAD,C_REG,NOM_REG,C_DEPEND,DEPEN,PERTEN,TIPO,AMBITO,URGENCIA,CERTIFICA,DEPEN_A,NIVEL,NOMBRE,C_COM,NOM_COM,VIA,NUMERO,DIRECCION,FONO,F_INICIO,F_REAPER,SAPU,F_CAMBIO,TIPO_CAMB,LATITUD,LONGITUD,PRESTADOR,ESTADO,NIVEL_COM,MODALIDAD
01-100,101100,No Aplica,No Aplica,15,Región De Arica Parinacota,1,Servicio de Salud Arica,Perteneciente,Hospital ,Establecimiento de Salud,SI,Autogestionado en Red ( EAR),Servicio de Salud,Terciario,Hospital Regional Dr. Juan Noé Crevanni (Arica),15101,Arica,Calle,1000,18 de Septiembre,582584592,39814,No Aplica,No Aplica,No Aplica,Sin cambio,-18.482478,-70.312948,Público ,Vigente en operación ,Alta Complejidad,Atención Cerrada-Hospitalaria
01-215,101215,No Aplica,No Aplica,15,Región De Arica Parinacota,15,SEREMI De Arica y Parinacota,No Perteneciente,Hospital,Establecimiento de Salud,NO,NO,Gendamería,Pendiente,Complejo Penitenciario,15101,Arica,Calle,S/N,Cuesta de Acha,582203400,39814,No Aplica,No Aplica,No Aplica,Sin cambio,-18.544416,-70.250049,Gendarmería,Vigente en operación ,Pendiente,Atención Cerrada-Hospitalaria
02-100,102100,No Aplica,No Aplica,1,Región De Tarapacá,2,Servicio de Salud Iquique,Perteneciente,Hospital ,Establecimiento de Salud,SI,Autogestionado en Red ( EAR),Servicio de Salud,Terciario,Hospital Dr. Ernesto Torres Galdames (Iquique),1101,Iquique,Calle,502,Héroes de la Concepción,572575861,39814,No Aplica,No Aplica,No Aplica,Sin cambio,-20.214354,-70.138931,Público ,Vigente en operación ,Alta Complejidad,Atención Cerrada-Hospitalaria
03-100,103100,No Aplica,No Aplica,2,Región De Antofagasta,3,Servicio de Salud Antofagasta,Perteneciente,Hospital ,Establecimiento de Salud,SI,Autogestionado en Red ( EAR),Servicio de Salud,Terciario,Hospital Dr. Leonardo Guzmán (Antofagasta),2101,Antofagasta,Avenida,5935,Azapa,552204648,39814,No Aplica,No Aplica,No Aplica,Cambio de dirección,-23.616852,-70.385924,Público ,Vigente en operación ,Alta Complejidad,Atención Cerrada-Hospitalaria
03-101,103101,No Aplica,No Aplica,2,Región De Antofagasta,3,Servicio de Salud Antofagasta,Perteneciente,Hospital ,Establecimiento de Salud,SI,Invitados a ser EAR,Servicio de Salud,Terciario,Hospital Dr. Carlos Cisternas (Calama),2201,Calama,Avenida,1490,Almirante Grau,552655700,39814,No Aplica,No Aplica,No Aplica,Cambio dirección,-22.445201,-68.918257,Público ,Vigente en operación ,Alta Complejidad,Atención Cerrada-Hospitalaria
03-102,103102,No Aplica,No Aplica,2,Región De Antofagasta,3,Servicio de Salud Antofagasta,Perteneciente,Hospital ,Establecimiento de Salud,SI,NO,Servicio de Salud,Primario-Secundario ( Por confirmar),Hospital Dr. Marcos Macuada (Tocopilla),2301,Tocopilla,Calle,S/N,Santa Rosa,552654560,39814,No Aplica,No Aplica,No Aplica,Sin cambio,-22.088382,-70.193236,Público ,Vigente en operación ,Baja Complejidad,Atención Cerrada-Hospitalaria
03-103,103103,No Aplica,No Aplica,2,Región De Antofagasta,3,Servicio de Salud Antofagasta,Perteneciente,Hospital ,Establecimiento de Salud,SI,NO,Servicio de Salud,Primario-Secundario ( Por confirmar),Hospital 21 de Mayo (Taltal),2104,Taltal,Calle,450,O'Higgins,552656300,39814,No Aplica,No Aplica,No Aplica,Sin cambio,-25.408169,-70.481211,Público ,Vigente en operación ,Baja Complejidad,Atención Cerrada-Hospitalaria
03-104,103104,No Aplica,No Aplica,2,Región De Antofagasta,3,Servicio de Salud Antofagasta,Perteneciente,Hospital ,Establecimiento de Salud,SI,NO,Servicio de Salud,Primario-Secundario ( Por confirmar),Hospital de Mejillones,2102,Mejillones,Avenida,451,Bernardo O'Higgins,552655250,39814,No Aplica,No Aplica,No Aplica,Sin cambio,-23.102666,-70.446328,Público ,Vigente en operación ,Baja Complejidad,Atención Cerrada-Hospitalaria
03-201,103201,No Aplica,No Aplica,2,Región De Antofagasta,2,SEREMI De Antofagasta,No Perteneciente,Hospital,Establecimiento de Salud,NO,NO,Privado,Pendiente,Hospital Cruz del Norte,2302,Maria Elena,Calle,S/N,Osorno ,552413700,39814,No Aplica,No Aplica,No Aplica,Sin cambio,-22.341778,-69.665033,Privado,Vigente en operación ,Baja Complejidad,Atención Cerrada-Hospitalaria
03-210,103210,No Aplica,No Aplica,2,Región De Antofagasta,2,SEREMI De Antofagasta,No Perteneciente,Hospital,Establecimiento de Salud,SI,NO,Fuerzas Armadas y de Orden (FFAA),Terciario,Hospital Militar del Norte,2101,Antofagasta,Avenida,957,Borgoño,552353000,39814,No Aplica,No Aplica,No Aplica,Sin cambio,-23.666927,-70.401556,Fuerzas Armadas y de Orden,Vigente en operación ,Mediana Complejidad,Atención Cerrada-Hospitalaria
03-219,103219,No Aplica,No Aplica,2,Región De Antofagasta,2,SEREMI De Antofagasta,No Perteneciente,Hospital,Establecimiento de Salud,SI,NO,Privado,Terciario,Hospital del Cobre Salvador Allende,2201,Calama,Avenida,689,Chorrillos,552320112,39814,No Aplica,No Aplica,No Aplica,Sin cambio,-22.453692,-68.907985,Privado,Vigente en operación ,Alta Complejidad,Atención Cerrada-Hospitalaria
04-100,104100,No Aplica,No Aplica,3,Región De Atacama,4,Servicio de Salud Atacama,Perteneciente,Hospital ,Establecimiento de Salud,SI,Invitados a ser EAR,Servicio de Salud,Terciario,Hospital San José del Carmen (Copiapó),3101,Copiapó,Calle,1320,Los Carrera,522465600,39814,No Aplica,No Aplica,No Aplica,Sin cambio,-27.373352,-70.322127,Público ,Vigente en operación ,Alta Complejidad,Atención Cerrada-Hospitalaria
04-101,104101,No Aplica,No Aplica,3,Región De Atacama,4,Servicio de Salud Atacama,Perteneciente,Hospital ,Establecimiento de Salud,SI,NO,Servicio de Salud,Primario-Secundario ( Por confirmar),Hospital Dr. Jerónimo Méndez Arancibia (Chañaral),3201,Chañaral,Avenida,1000,Arturo Prat,522465550,39814,No Aplica,No Aplica,No Aplica,Sin cambio,-26.347153,-70.617306,Público ,Vigente en operación ,Baja Complejidad,Atención Cerrada-Hospitalaria
04-102,104102,No Aplica,No Aplica,3,Región De Atacama,4,Servicio de Salud Atacama,Perteneciente,Hospital ,Establecimiento de Salud,SI,NO,Servicio de Salud,Primario-Secundario ( Por confirmar),Hospital Dr. Florencio Vargas (Diego de Almagro),3202,Diego de Almagro,Calle,2200,Juan Martínez,522465500,39814,No Aplica,No Aplica,No Aplica,Sin cambio,-26.392456,-70.052331,Público ,Vigente en operación ,Baja Complejidad,Atención Cerrada-Hospitalaria
04-103,104103,No Aplica,No Aplica,3,Región De Atacama,4,Servicio de Salud Atacama,Perteneciente,Hospital,Establecimiento de Salud,SI,Invitados a ser EAR,Servicio de Salud,Pendiente,Hospital Provincial del Huasco Monseñor Fernando Ariztía Ruiz (Vallenar),3301,Vallenar,Avenida,392,Huasco,512331500,39814,No Aplica,No Aplica,No Aplica,Sin cambio,-28.574949,-70.782512,Público ,Vigente en operación ,Mediana Complejidad,Atención Cerrada-Hospitalaria
04-104,104104,No Aplica,No Aplica,3,Región De Atacama,4,Servicio de Salud Atacama,Perteneciente,Hospital ,Establecimiento de Salud,SI,NO,Servicio de Salud,Primario-Secundario ( Por confirmar),Hospital Dr. Manuel Magalhaes Medling (Huasco),3304,Huasco,Calle,105,Canteras,512331200,39814,No Aplica,No Aplica,No Aplica,Sin cambio,-28.463524,-71.216511,Público ,Vigente en operación ,Baja Complejidad,Atención Cerrada-Hospitalaria
05-100,105100,No Aplica,No Aplica,4,Región De Coquimbo,5,Servicio de Salud Coquimbo,Perteneciente,Hospital ,Establecimiento de Salud,SI,Autogestionado en Red ( EAR),Servicio de Salud,Terciario,Hospital San Juan de Dios (La Serena),4101,La Serena,Calle,916,Balmaceda,512333378,39814,No Aplica,No Aplica,No Aplica,Sin cambio,-29.908191,-71.249732,Público ,Vigente en operación ,Alta Complejidad,Atención Cerrada-Hospitalaria
05-101,105101,No Aplica,No Aplica,4,Región De Coquimbo,5,Servicio de Salud Coquimbo,Perteneciente,Hospital ,Establecimiento de Salud,SI,Autogestionado en Red ( EAR),Servicio de Salud,Terciario,Hospital San Pablo (Coquimbo),4102,Coquimbo,Avenida,S/N,Videla,512336715,39814,No Aplica,No Aplica,No Aplica,Sin cambio,-29.968488,-71.337017,Público ,Vigente en operación ,Alta Complejidad,Atención Cerrada-Hospitalaria
05-102,105102,No Aplica,No Aplica,4,Región De Coquimbo,5,Servicio de Salud Coquimbo,Perteneciente,Hospital ,Establecimiento de Salud,SI,Autogestionado en Red ( EAR),Servicio de Salud,Terciario,Hospital Dr. Antonio Tirado Lanas de Ovalle,4301,Ovalle,Calle,7,Ariztía Poniente,532663194,39814,No Aplica,No Aplica,No Aplica,Sin cambio,-30.599614,-71.200031,Público ,Vigente en operación ,Alta Complejidad,Atención Cerrada-Hospitalaria
05-103,105103,No Aplica,No Aplica,4,Región De Coquimbo,5,Servicio de Salud Coquimbo,Perteneciente,Hospital,Establecimiento de Salud,SI,Invitados a ser EAR,Servicio de Salud,Terciario,Hospital Dr. Humberto Elorza Cortés (Illapel),4201,Illapel,Calle,512,Independencia,532663867,39814,No Aplica,No Aplica,No Aplica,Cambio Nombre Hospital,-31.63473,-71.173672,Público ,Vigente en operación ,Mediana Complejidad,Atención Cerrada-Hospitalaria
05-104,105104,No Aplica,No Aplica,4,Región De Coquimbo,5,Servicio de Salud Coquimbo,Perteneciente,Hospital ,Establecimiento de Salud,SI,NO,Servicio de Salud,Primario-Secundario ( Por confirmar),Hospital de Salamanca,4204,Salamanca,Calle,113,Matilde Salamanca,532662960,39814,No Aplica,No Aplica,No Aplica,Sin cambio,-31.776383,-70.962957,Público ,Vigente en operación ,Baja Complejidad,Atención Cerrada-Hospitalaria
05-105,105105,No Aplica,No Aplica,4,Región De Coquimbo,5,Servicio de Salud Coquimbo,Perteneciente,Hospital ,Establecimiento de Salud,SI,NO,Servicio de Salud,Primario-Secundario ( Por confirmar),Hospital San Juan de Dios (Combarbalá),4302,Combarbalá,Calle,650,Comercio,532663464,39814,No Aplica,No Aplica,No Aplica,Sin cambio,-31.175494,-71.007933,Público ,Vigente en operación ,Baja Complejidad,Atención Cerrada-Hospitalaria
05-106,105106,No Aplica,No Aplica,4,Región De Coquimbo,5,Servicio de Salud Coquimbo,Perteneciente,Hospital ,Establecimiento de Salud,SI,NO,Servicio de Salud,Primario-Secundario ( Por confirmar),Hospital Dr. José Arraño (Andacollo),4103,Andacollo,Calle,2,Urmeneta,512331096,39814,No Aplica,No Aplica,No Aplica,Sin cambio,-30.227567,-71.085488,Público ,Vigente en operación ,Baja Complejidad,Atención Cerrada-Hospitalaria
05-107,105107,No Aplica,No Aplica,4,Región De Coquimbo,5,Servicio de Salud Coquimbo,Perteneciente,Hospital ,Establecimiento de Salud,SI,NO,Servicio de Salud,Primario-Secundario ( Por confirmar),Hospital San Juan de Dios (Vicuña),4106,Vicuña,Calle,591,Arturo Prat,512333176,39814,No Aplica,No Aplica,No Aplica,Sin cambio,-30.029346,-70.712492,Público ,Vigente en operación ,Baja Complejidad,Atención Cerrada-Hospitalaria
05-108,105108,No Aplica,No Aplica,4,Región De Coquimbo,5,Servicio de Salud Coquimbo,Perteneciente,Hospital ,Establecimiento de Salud,SI,NO,Servicio de Salud,Primario-Secundario ( Por confirmar),Hospital San Pedro (Los Vilos),4203,Los Vilos,Calle,400,Arauco,532663626,39814,No Aplica,No Aplica,No Aplica,Sin cambio,-31.915244,-71.512688,Público ,Vigente en operación ,Baja Complejidad,Atención Cerrada-Hospitalaria
06-100,106100,No Aplica,No Aplica,5,Región De Valparaíso,6,Servicio de Salud Valparaíso San Antonio,Perteneciente,Hospital ,Establecimiento de Salud,SI,Autogestionado en Red ( EAR),Servicio de Salud,Terciario,Hospital Carlos Van Buren (Valparaíso),5101,Valparaíso,Calle,725,San Ignacio ,322204000,39814,No Aplica,No Aplica,No Aplica,Sin cambio,-33.050258,-71.611098,Público ,Vigente en operación ,Alta Complejidad,Atención Cerrada-Hospitalaria
06-102,106102,No Aplica,No Aplica,5,Región De Valparaíso,6,Servicio de Salud Valparaíso San Antonio,Perteneciente,Hospital ,Establecimiento de Salud,NO,Autogestionado en Red ( EAR),Servicio de Salud,Terciario,Hospital Dr. Eduardo Pereira Ramírez (Valparaíso),5101,Valparaíso,Calle,S/N,Ibsen,322577310,39814,No Aplica,No Aplica,No Aplica,Sin cambio,-33.05679,-71.58962,Público ,Vigente en operación ,Alta Complejidad,Atención Cerrada-Hospitalaria
06-103,106103,No Aplica,No Aplica,5,Región De Valparaíso,6,Servicio de Salud Valparaíso San Antonio,Perteneciente,Hospital ,Establecimiento de Salud,SI,Autogestionado en Red ( EAR),Servicio de Salud,Terciario,Hospital Claudio Vicuña ( San Antonio),5601,San Antonio,Calle,945,Carmen Guerrero ,322212244,9133,No Aplica,No Aplica,No Aplica,Sin cambio,-33.588809,-71.608623,Público ,Vigente en operación ,Alta Complejidad,Atención Cerrada-Hospitalaria
06-104,106104,No Aplica,No Aplica,5,Región De Valparaíso,6,Servicio de Salud Valparaíso San Antonio,Perteneciente,Hospital,Establecimiento de Salud,NO,NO,Servicio de Salud,Terciario,Hospital Siquíatrico del Salvador ,5101,Valparaíso,Calle,200,Subida Carvallo ,322281012,39814,No Aplica,No Aplica,No Aplica,Sin cambio,-33.021285,-71.642513,Público ,Vigente en operación ,Mediana Complejidad,Atención Cerrada-Hospitalaria
06-105,106105,No Aplica,No Aplica,5,Región De Valparaíso,6,Servicio de Salud Valparaíso San Antonio,Perteneciente,Hospital ,Establecimiento de Salud,SI,NO,Servicio de Salud,Primario-Secundario ( Por confirmar),Hospital San José (Casablanca),5102,Casablanca,Calle,124,Yungay,322577100,39814,No Aplica,No Aplica,No Aplica,Sin cambio,-33.319197,-71.407904,Público ,Vigente en operación ,Baja Complejidad,Atención Cerrada-Hospitalaria
06-213,106213,No Aplica,No Aplica,5,Región De Valparaíso,5,SEREMI De Valparaíso,No Perteneciente,Hospital,Establecimiento de Salud,NO,NO,Gendamería,Pendiente,Complejo Penitenciario,5101,Valparaíso,Calle,665,La Pólvora,322279150,39814,No Aplica,No Aplica,No Aplica,Sin cambio,-33.066338,-71.632927,Gendarmería,Vigente en operación ,Baja Complejidad,Atención Cerrada-Hospitalaria
07-100,107100,No Aplica,No Aplica,5,Región De Valparaíso,7,Servicio de Salud Viña del Mar Quillota,Perteneciente,Hospital ,Establecimiento de Salud,SI,Autogestionado en Red ( EAR),Servicio de Salud,Terciario,Hospital Dr. Gustavo Fricke (Viña del Mar),5109,Viña del Mar,Calle,1532,Álvarez,322577571,39814,No Aplica,No Aplica,No Aplica,Sin cambio,-33.0294,-71.541725,Público ,Vigente en operación ,Alta Complejidad,Atención Cerrada-Hospitalaria
07-101,107101,No Aplica,No Aplica,5,Región De Valparaíso,7,Servicio de Salud Viña del Mar Quillota,Perteneciente,Hospital ,Establecimiento de Salud,SI,Autogestionado en Red ( EAR),Servicio de Salud,Terciario,Hospital San Martín (Quillota),5501,Quillota,Calle,1050,Concepción,332298020,39814,No Aplica,No Aplica,No Aplica,Sin cambio,-32.87993,-71.257745,Público ,Vigente en operación ,Alta Complejidad,Atención Cerrada-Hospitalaria
07-102,107102,No Aplica,No Aplica,5,Región De Valparaíso,7,Servicio de Salud Viña del Mar Quillota,Perteneciente,Hospital ,Establecimiento de Salud,SI,Autogestionado en Red ( EAR),Servicio de Salud,Terciario,Hospital de Quilpué,5801,Quilpue,Calle,1270,San Martín ,322759010-322759099-322759057,39814,No Aplica,No Aplica,No Aplica,Sin cambio,-33.051961,-71.433933,Público ,Vigente en operación ,Alta Complejidad,Atención Cerrada-Hospitalaria
07-103,107103,No Aplica,No Aplica,5,Región De Valparaíso,7,Servicio de Salud Viña del Mar Quillota,Perteneciente,Hospital ,Establecimiento de Salud,SI,NO,Servicio de Salud,Primario-Secundario ( Por confirmar),Hospital Dr. Mario Sánchez Vergara (La Calera),5502,Calera,Calle,1603,Carrera,332293192,39814,No Aplica,No Aplica,No Aplica,Sin cambio,-32.7926,-71.204544,Público ,Vigente en operación ,Baja Complejidad,Atención Cerrada-Hospitalaria
07-104,107104,No Aplica,No Aplica,5,Región De Valparaíso,7,Servicio de Salud Viña del Mar Quillota,Perteneciente,Hospital ,Establecimiento de Salud,SI,NO,Servicio de Salud,Primario-Secundario ( Por confirmar),Hospital Santo Tomás (Limache),5802,Limache,Calle,S/N,Carelmapu,332293801,39814,No Aplica,No Aplica,No Aplica,Cambio nivel de atención (16.09.2020),-32.998637,-71.268427,Público ,Vigente en operación ,Baja Complejidad,Atención Cerrada-Hospitalaria
07-105,107105,No Aplica,No Aplica,5,Región De Valparaíso,7,Servicio de Salud Viña del Mar Quillota,Perteneciente,Hospital ,Establecimiento de Salud,SI,NO,Servicio de Salud,Primario-Secundario ( Por confirmar),Hospital San Agustín (La Ligua),5401,La Ligua,Calle,1020,Dr. Víctor Díaz,332293490,39814,No Aplica,No Aplica,No Aplica,Sin cambio,-32.45048,-71.237975,Público ,Vigente en operación ,Baja Complejidad,Atención Cerrada-Hospitalaria
07-106,107106,No Aplica,No Aplica,5,Región De Valparaíso,7,Servicio de Salud Viña del Mar Quillota,Perteneciente,Hospital ,Establecimiento de Salud,SI,NO,Servicio de Salud,Primario-Secundario ( Por confirmar),Hospital Dr. Víctor Hugo Moll (Cabildo),5402,Cabildo,Calle,S/N,Aníbal Pinto,332293400,39814,No Aplica,No Aplica,No Aplica,Cambio nivel de atención (16.09.2020),-32.428287,-71.067794,Público ,Vigente en operación ,Baja Complejidad,Atención Cerrada-Hospitalaria
07-107,107107,No Aplica,No Aplica,5,Región De Valparaíso,7,Servicio de Salud Viña del Mar Quillota,Perteneciente,Hospital ,Establecimiento de Salud,SI,NO,Servicio de Salud,Primario-Secundario ( Por confirmar),Hospital de Petorca,5404,Petorca,Calle,860,Manuel Montt,332293610,39814,No Aplica,No Aplica,No Aplica,Cambio nivel de atención (16.09.2020),-32.251957,-70.928839,Público ,Vigente en operación ,Baja Complejidad,Atención Cerrada-Hospitalaria
07-108,107108,No Aplica,No Aplica,5,Región De Valparaíso,7,Servicio de Salud Viña del Mar Quillota,Perteneciente,Hospital ,Establecimiento de Salud,SI,NO,Servicio de Salud,Primario-Secundario ( Por confirmar),Hospital Adriana Cousiño (Quintero),5107,Quintero,Calle,380,Aránguiz Tudela,322578900,39814,No Aplica,No Aplica,No Aplica,Cambio nivel de atención (16.09.2020),-32.779236,-71.531159,Público ,Vigente en operación ,Baja Complejidad,Atención Cerrada-Hospitalaria
07-109,107109,No Aplica,No Aplica,5,Región De Valparaíso,7,Servicio de Salud Viña del Mar Quillota,Perteneciente,Hospital ,Establecimiento de Salud,SI,NO,Servicio de Salud,Primario-Secundario ( Por confirmar),"Hospital Juana Ross de Edwards (Peñablanca, Villa Alemana)",5804,Villa Alemana,Calle,660,Sargento Aldea,322759542,39814,No Aplica,No Aplica,No Aplica,Sin cambio,-33.037787,-71.356835,Público ,Vigente en operación ,Baja Complejidad,Atención Cerrada-Hospitalaria
07-110,107110,No Aplica,No Aplica,5,Región De Valparaíso,7,Servicio de Salud Viña del Mar Quillota,Perteneciente,Hospital ,Establecimiento de Salud,NO,NO,Servicio de Salud,Primario-Secundario ( Por confirmar),Hospital Centro Geriátrico Paz de la Tarde (Limache),5802,Limache,Calle,198,Caupolicán,332294801,39814,No Aplica,No Aplica,No Aplica,Sin cambio,-32.98786,-71.277236,Público ,Vigente en operación ,Baja Complejidad,Atención Cerrada-Hospitalaria
07-210,107210,No Aplica,No Aplica,5,Región De Valparaíso,5,SEREMI De Valparaíso,No Perteneciente,Hospital,Establecimiento de Salud,NO,NO,Privado,Terciario,Sanatorio Marítimo San Juan de Dios,5109,Viña del Mar,Avenida,1355,San Martín,322460220,39814,No Aplica,No Aplica,No Aplica,Sin cambio,-32.994608,-71.520496,Privado,Vigente en operación ,Pendiente,Atención Abierta-Ambulatoria
07-212,107212,No Aplica,No Aplica,5,Región De Valparaíso,5,SEREMI De Valparaíso,No Perteneciente,Hospital,Establecimiento de Salud,SI,NO,Privado,Terciario,Hospital Niños y Cunas,5109,Viña del Mar,Calle,1667,Limache,322385000,39814,No Aplica,No Aplica,No Aplica,Sin cambio,-33.028478,-71.540351,Privado,Vigente en operación ,Baja Complejidad,Atención Cerrada-Hospitalaria
07-217,107217,No Aplica,No Aplica,5,Región De Valparaíso,5,SEREMI De Valparaíso,No Perteneciente,Hospital,Establecimiento de Salud,SI,NO,Fuerzas Armadas y de Orden (FFAA),Terciario,Hospital Naval Almirante Neff,5109,Viña del Mar,Calle,S/N,Subida Alessandri,322573047,39814,No Aplica,No Aplica,No Aplica,Sin cambio,-32.998382,-71.54382,Fuerzas Armadas y de Orden,Vigente en operación ,Alta Complejidad,Atención Cerrada-Hospitalaria
07-224,107224,No Aplica,No Aplica,5,Región De Valparaíso,5,SEREMI De Valparaíso,No Perteneciente,Hospital,Establecimiento de Salud,SI,NO,Privado,Terciario,Hospital Clínico Viña del Mar,5109,Viña del Mar,Calle,1741,Limache,322323800,39814,No Aplica,No Aplica,No Aplica,Sin cambio,-33.029048,-71.539064,Privado,Vigente en operación ,Alta Complejidad,Atención Cerrada-Hospitalaria
08-100,108100,No Aplica,No Aplica,5,Región De Valparaíso,8,Servicio de Salud Aconcagua,Perteneciente,Hospital ,Establecimiento de Salud,SI,Autogestionado en Red ( EAR),Servicio de Salud,Terciario,Hospital San Camilo de San Felipe,5701,San Felipe,Calle,2085,Miraflores,342493307,39814,No Aplica,No Aplica,No Aplica,Sin cambio,-32.74977,-70.708992,Público ,Vigente en operación ,Alta Complejidad,Atención Cerrada-Hospitalaria
08-101,108101,No Aplica,No Aplica,5,Región De Valparaíso,8,Servicio de Salud Aconcagua,Perteneciente,Hospital ,Establecimiento de Salud,SI,Autogestionado en Red ( EAR),Servicio de Salud,Terciario,Hospital San Juan de Dios (Los Andes),5301,Los Andes,Avenida,315,Argentina ,342490300,39814,No Aplica,No Aplica,No Aplica,Sin cambio,-32.829664,-70.59643,Público ,Vigente en operación ,Alta Complejidad,Atención Cerrada-Hospitalaria
08-102,108102,No Aplica,No Aplica,5,Región De Valparaíso,8,Servicio de Salud Aconcagua,Perteneciente,Hospital ,Establecimiento de Salud,SI,NO,Servicio de Salud,Primario-Secundario ( Por confirmar),Hospital San Francisco (Llaillay),5703,Llaillay,Calle,76,San Francisco,342492800,39814,No Aplica,No Aplica,No Aplica,Sin cambio,-32.842771,-70.954945,Público ,Vigente en operación ,Baja Complejidad,Atención Cerrada-Hospitalaria
08-104,108104,No Aplica,No Aplica,5,Región De Valparaíso,8,Servicio de Salud Aconcagua,Perteneciente,Hospital ,Establecimiento de Salud,SI,NO,Servicio de Salud,Primario-Secundario ( Por confirmar),Hospital San Antonio (Putaendo),5705,Putaendo,Avenida,186,Alessandri ,342492700,39814,No Aplica,No Aplica,No Aplica,Sin cambio,-32.622065,-70.717848,Público ,Vigente en operación ,Baja Complejidad,Atención Cerrada-Hospitalaria
08-105,108105,No Aplica,No Aplica,5,Región De Valparaíso,8,Servicio de Salud Aconcagua,Perteneciente,Hospital,Establecimiento de Salud,SI,NO,Servicio de Salud,Terciario,Hospital Psiquiátrico Dr. Philippe Pinel (Putaendo),5705,Putaendo,Calle,2500,José Antonio Salinas ,342490600,39814,No Aplica,No Aplica,No Aplica,Sin cambio,-32.619019,-70.688607,Público ,Vigente en operación ,Mediana Complejidad,Atención Cerrada-Hospitalaria
09-100,109100,No Aplica,No Aplica,13,Región Metropolitana de Santiago,9,Servicio de Salud Metropolitano Norte,Perteneciente,Hospital ,Establecimiento de Salud,SI,Autogestionado en Red ( EAR),Servicio de Salud,Terciario,"Complejo Hospitalario San José (Santiago, Independencia)",13108,Independencia,Calle,1196,San José ,225680000,29221,No Aplica,No Aplica,No Aplica,Sin cambio,-33.416586,-70.653318,Público ,Vigente en operación ,Alta Complejidad,Atención Cerrada-Hospitalaria
09-101,109101,No Aplica,No Aplica,13,Región Metropolitana de Santiago,9,Servicio de Salud Metropolitano Norte,Perteneciente,Hospital ,Establecimiento de Salud,SI,Autogestionado en Red ( EAR),Servicio de Salud,Terciario,"Hospital Clínico de Niños Dr. Roberto del Río (Santiago, Independencia)",13108,Independencia,Avenida,1085,Profesor Zañartu ,225758000,39814,No Aplica,No Aplica,No Aplica,Sin cambio,-33.415335,-70.655086,Público ,Vigente en operación ,Alta Complejidad,Atención Cerrada-Hospitalaria
09-102,109102,No Aplica,No Aplica,13,Región Metropolitana de Santiago,9,Servicio de Salud Metropolitano Norte,Perteneciente,Hospital ,Establecimiento de Salud,NO,Autogestionado en Red ( EAR),Servicio de Salud,Terciario,"Instituto Psiquiátrico Dr. José Horwitz Barak (Santiago, Recoleta)",13127,Recoleta,Avenida,841,La Paz ,225758850,39814,No Aplica,No Aplica,No Aplica,Sin cambio,-33.422402,-70.650537,Público ,Vigente en operación ,Alta Complejidad,Atención Cerrada-Hospitalaria
09-103,109103,No Aplica,No Aplica,13,Región Metropolitana de Santiago,9,Servicio de Salud Metropolitano Norte,Perteneciente,Hospital ,Establecimiento de Salud,NO,Autogestionado en Red ( EAR),Servicio de Salud,Terciario,"Instituto Nacional del Cáncer Dr. Caupolicán Pardo Correa (Santiago, Recoleta)",13108,Independencia,Avenida,1010,Profesor Zañartu ,225757100,39814,No Aplica,No Aplica,No Aplica,Sin cambio,-33.418128,-70.652105,Público ,Vigente en operación ,Alta Complejidad,Atención Cerrada-Hospitalaria
09-104,109104,No Aplica,No Aplica,13,Región Metropolitana de Santiago,9,Servicio de Salud Metropolitano Norte,Perteneciente,Hospital ,Establecimiento de Salud,SI,NO,Servicio de Salud,Primario-Secundario ( Por confirmar),Hospital de Til Til,13303,Tiltil,Calle,100,Daniel Moya ,225751700,39814,No Aplica,No Aplica,No Aplica,Sin cambio,-33.086793,-70.924522,Público ,Vigente en operación ,Baja Complejidad,Atención Cerrada-Hospitalaria
09-200,109200,No Aplica,No Aplica,13,Región Metropolitana de Santiago,13,SEREMI Metropolitana de Santiago,No Perteneciente,Hospital,Establecimiento de Salud,SI,NO,Delegados ,Terciario,Hospital Clínico Universidad de Chile,13108,Independencia,Calle,999,Santos Dumond,229788551,39814,No Aplica,No Aplica,No Aplica,Sin cambio,-33.420057,-70.653116,Privado,Vigente en operación ,Alta Complejidad,Atención Cerrada-Hospitalaria
10-100,110100,No Aplica,No Aplica,13,Región Metropolitana de Santiago,10,Servicio de Salud Metropolitano Occidente,Perteneciente,Hospital ,Establecimiento de Salud,SI,Autogestionado en Red ( EAR),Servicio de Salud,Terciario,"Hospital San Juan de Dios (Santiago, Santiago)",13101,Santiago,Calle,3255,Huérfanos,225741900,39814,No Aplica,No Aplica,No Aplica,Sin cambio,-33.442394,-70.679188,Público ,Vigente en operación ,Alta Complejidad,Atención Cerrada-Hospitalaria
10-110,110110,No Aplica,No Aplica,13,Región Metropolitana de Santiago,10,Servicio de Salud Metropolitano Occidente,Perteneciente,Hospital ,Establecimiento de Salud,SI,Autogestionado en Red ( EAR),Servicio de Salud,Terciario,Instituto Traumatológico Dr. Teodoro Gebauer,13101,Santiago,Avenida,771,San Martin,225746150,39814,No Aplica,No Aplica,No Aplica,Sin cambio,-33.434891,-70.658236,Público ,Vigente en operación ,Alta Complejidad,Atención Cerrada-Hospitalaria
10-120,110120,No Aplica,No Aplica,13,Región Metropolitana de Santiago,10,Servicio de Salud Metropolitano Occidente,Perteneciente,Hospital ,Establecimiento de Salud,SI,Autogestionado en Red ( EAR),Servicio de Salud,Terciario,"Hospital Dr. Félix Bulnes Cerda (Santiago, Quinta Normal)",13126,Quinta Normal,Calle,2655,Leoncio Fernández ,225744400,39814,No Aplica,No Aplica,No Aplica,Sin cambio,-33.415057,-70.696103,Público ,Vigente en operación ,Alta Complejidad,Atención Cerrada-Hospitalaria
10-130,110130,No Aplica,No Aplica,13,Región Metropolitana de Santiago,10,Servicio de Salud Metropolitano Occidente,Perteneciente,Hospital,Establecimiento de Salud,SI,Invitados a ser EAR,Servicio de Salud,Terciario,Hospital Adalberto Steeger (Talagante),13601,Talagante,Calle,1458,Balmaceda,225744252,39814,No Aplica,No Aplica,No Aplica,Sin cambio,-33.66801,-70.920339,Público ,Vigente en operación ,Mediana Complejidad,Atención Cerrada-Hospitalaria
10-140,110140,No Aplica,No Aplica,13,Región Metropolitana de Santiago,10,Servicio de Salud Metropolitano Occidente,Perteneciente,Hospital,Establecimiento de Salud,SI,NO,Servicio de Salud,Terciario,Hospital de Peñaflor,13605,Peñaflor,Calle,214,José Miguel Carrera,225742500,39814,No Aplica,No Aplica,No Aplica,Sin cambio,-33.61001,-70.904125,Público ,Vigente en operación ,Mediana Complejidad,Atención Cerrada-Hospitalaria
10-150,110150,No Aplica,No Aplica,13,Región Metropolitana de Santiago,10,Servicio de Salud Metropolitano Occidente,Perteneciente,Hospital ,Establecimiento de Salud,SI,Autogestionado en Red ( EAR),Servicio de Salud,Terciario,Hospital San José (Melipilla),13501,Melipilla,Calle,551,O'Higgins,225745555,39814,No Aplica,No Aplica,No Aplica,Sin cambio,-33.69526,-71.214668,Público ,Vigente en operación ,Alta Complejidad,Atención Cerrada-Hospitalaria
10-160,110160,No Aplica,No Aplica,13,Región Metropolitana de Santiago,10,Servicio de Salud Metropolitano Occidente,Perteneciente,Hospital ,Establecimiento de Salud,SI,NO,Servicio de Salud,Primario-Secundario ( Por confirmar),Hospital de Curacaví,13503,Curacaví,Avenida,500,Ambrosio O'Higgins,225745400,39814,No Aplica,No Aplica,No Aplica,Sin cambio,-33.4095,-71.145664,Público ,Vigente en operación ,Baja Complejidad,Atención Cerrada-Hospitalaria
11-100,111100,No Aplica,No Aplica,13,Región Metropolitana de Santiago,11,Servicio de Salud Metropolitano Central,Perteneciente,Hospital ,Establecimiento de Salud,SI,Autogestionado en Red ( EAR),Servicio de Salud,Terciario,Hospital Clínico San Borja Arriarán,13101,Santiago,Calle,1234,Santa Rosa,225749000,39814,No Aplica,No Aplica,No Aplica,Sin cambio,-33.460498,-70.64232,Público ,Vigente en operación ,Alta Complejidad,Atención Cerrada-Hospitalaria
11-101,111101,No Aplica,No Aplica,13,Región Metropolitana de Santiago,11,Servicio de Salud Metropolitano Central,Perteneciente,Hospital ,Establecimiento de Salud,SI,Invitados a ser EAR,Servicio de Salud,Terciario,Hospital Clínico Metropolitano El Carmen Doctor Luis Valentín Ferrada,13119,Maipú,Calle,1201,"Camino a Rinconada, Avenida El Olimpo",226120491-226120256,39814,No Aplica,No Aplica,No Aplica,Sin cambio,-33.508212,-70.774248,Público ,Vigente en operación ,Alta Complejidad,Atención Cerrada-Hospitalaria
11-195,111195,No Aplica,No Aplica,13,Región Metropolitana de Santiago,11,Servicio de Salud Metropolitano Central,Perteneciente,Hospital ,Establecimiento de Salud,SI,Autogestionado en Red ( EAR),Servicio de Salud,Terciario,Hospital de Urgencia Asistencia Pública Dr. Alejandro del Río,13101,Santiago,Avenida,125,Portugal ,224681100,39814,No Aplica,No Aplica,No Aplica,Sin cambio,-33.444004,-70.637955,Público ,Vigente en operación ,Alta Complejidad,Atención Cerrada-Hospitalaria
11-200,111200,No Aplica,No Aplica,13,Región Metropolitana de Santiago,13,SEREMI Metropolitana de Santiago,No Perteneciente,Hospital,Establecimiento de Salud,SI,NO,Delegados ,Terciario,Hospital Clínico Red de Salud UC CHRISTUS,13101,Santiago,Calle,367,Marcoleta,223543103,39814,No Aplica,No Aplica,No Aplica,Sin cambio,-33.442233,-70.640349,Privado,Vigente en operación ,Alta Complejidad,Atención Cerrada-Hospitalaria
11-202,111202,No Aplica,No Aplica,13,Región Metropolitana de Santiago,13,SEREMI Metropolitana de Santiago,No Perteneciente,Hospital,Establecimiento de Salud,SI,NO,Privado,Terciario,Hospital Clínico Mutual de Seguridad C.CH.C.,13106,Estación Central,Avenida,4848,Libertador Bernardo O'Higgins,227794778,39814,No Aplica,No Aplica,No Aplica,Modificación planta física Hospital,-33.45676,-70.700784,Privado,Vigente en operación ,Alta Complejidad,Atención Cerrada-Hospitalaria
11-203,111203,No Aplica,No Aplica,13,Región Metropolitana de Santiago,13,SEREMI Metropolitana de Santiago,No Perteneciente,Hospital,Establecimiento de Salud,NO,NO,Gendamería,Terciario,Hospital Penitenciario,13101,Santiago,Avenida,1902,Pedro Montt,225544018,39814,No Aplica,No Aplica,No Aplica,Sin cambio,-33.473594,-70.660323,Gendarmería,Vigente en operación ,Baja Complejidad,Atención Cerrada-Hospitalaria
11-205,111205,No Aplica,No Aplica,13,Región Metropolitana de Santiago,13,SEREMI Metropolitana de Santiago,No Perteneciente,Hospital,Establecimiento de Salud,SI,NO,Privado,Terciario,Hospital Clínico Instituto de Seguridad del Trabajo de Santaigo,13101,Santiago,Calle,1410,Placer,228107800,39814,No Aplica,No Aplica,No Aplica,Sin cambio,-33.475925,-70.651674,Privado,Vigente en operación ,Alta Complejidad,Atención Cerrada-Hospitalaria
12-100,112100,No Aplica,No Aplica,13,Región Metropolitana de Santiago,12,Servicio de Salud Metropolitano Oriente,Perteneciente,Hospital ,Establecimiento de Salud,SI,Autogestionado en Red ( EAR),Servicio de Salud,Terciario,Hospital Del Salvador de Santiago,13123,Providencia,Avenida,364,Salvador ,225754000,39814,No Aplica,No Aplica,No Aplica,Sin cambio,-33.43664,-70.624493,Público ,Vigente en operación ,Alta Complejidad,Atención Cerrada-Hospitalaria
12-101,112101,No Aplica,No Aplica,13,Región Metropolitana de Santiago,12,Servicio de Salud Metropolitano Oriente,Perteneciente,Hospital ,Establecimiento de Salud,SI,Autogestionado en Red ( EAR),Servicio de Salud,Terciario,"Hospital Dr. Luis Tisné B. (Santiago, Peñalolén)",13122,Peñalolén,Avenida,5150,Las Torres ,224725200,39814,No Aplica,No Aplica,No Aplica,Sin cambio,-33.501328,-70.579408,Público ,Vigente en operación ,Alta Complejidad,Atención Cerrada-Hospitalaria
12-102,112102,No Aplica,No Aplica,13,Región Metropolitana de Santiago,12,Servicio de Salud Metropolitano Oriente,Perteneciente,Hospital ,Establecimiento de Salud,SI,Autogestionado en Red ( EAR),Servicio de Salud,Terciario,Hospital de Niños Dr. Luis Calvo Mackenna,13123,Providencia,Avenida,360,Antonio Varas,225755800,39814,No Aplica,No Aplica,No Aplica,Sin cambio,-33.430592,-70.615846,Público ,Vigente en operación ,Alta Complejidad,Atención Cerrada-Hospitalaria
12-103,112103,No Aplica,No Aplica,13,Región Metropolitana de Santiago,12,Servicio de Salud Metropolitano Oriente,Perteneciente,Hospital ,Establecimiento de Salud,NO,Autogestionado en Red ( EAR),Servicio de Salud,Terciario,Instituto Nacional de Enfermedades Respiratorias y Cirugía Torácica,13123,Providencia,Calle,717,José Manuel Infante,225755000,39814,No Aplica,No Aplica,No Aplica,Sin cambio,-33.437988,-70.621882,Público ,Vigente en operación ,Alta Complejidad,Atención Cerrada-Hospitalaria
12-104,112104,No Aplica,No Aplica,13,Región Metropolitana de Santiago,12,Servicio de Salud Metropolitano Oriente,Perteneciente,Hospital ,Establecimiento de Salud,SI,Autogestionado en Red ( EAR),Servicio de Salud,Terciario,Instituto de Neurocirugía Dr. Alfonso Asenjo,13123,Providencia,Avenida,553,José M. Infante ,225754600,39814,No Aplica,No Aplica,No Aplica,Sin cambio,-33.436888,-70.622448,Público ,Vigente en operación ,Alta Complejidad,Atención Cerrada-Hospitalaria
12-105,112105,No Aplica,No Aplica,13,Región Metropolitana de Santiago,12,Servicio de Salud Metropolitano Oriente,Perteneciente,Hospital ,Establecimiento de Salud,NO,Autogestionado en Red ( EAR),Servicio de Salud,Terciario,Instituto Nacional de Rehabilitación Infantil Presidente Pedro Aguirre Cerda,13122,Peñalolén,Avenida,5969,José Arrieta ,225754350,39814,No Aplica,No Aplica,No Aplica,Sin cambio,-33.460454,-70.569892,Público ,Vigente en operación ,Alta Complejidad,Atención Cerrada-Hospitalaria
12-106,112106,No Aplica,No Aplica,13,Región Metropolitana de Santiago,12,Servicio de Salud Metropolitano Oriente,Perteneciente,Hospital ,Establecimiento de Salud,NO,Autogestionado en Red ( EAR),Servicio de Salud,Terciario,Instituto Nacional Geriátrico Presidente Eduardo Frei Montalva,13123,Providencia,Calle,370,José Manuel Infante ,225754459,39814,No Aplica,No Aplica,No Aplica,Sin cambio,-33.434825,-70.622227,Público ,Vigente en operación ,Alta Complejidad,Atención Cerrada-Hospitalaria
12-107,112107,No Aplica,No Aplica,5,Región De Valparaíso,12,Servicio de Salud Metropolitano Oriente,Perteneciente,Hospital ,Establecimiento de Salud,SI,NO,Servicio de Salud,Primario-Secundario ( Por confirmar),Hospital Hanga Roa (Isla De Pascua),5201,Isla de Pascua,Calle,S/N,Simón Paoa ,322578361,39814,No Aplica,No Aplica,No Aplica,Sin cambio,-27.150245,-109.421012,Público ,Vigente en operación ,Baja Complejidad,Atención Cerrada-Hospitalaria
12-238,112238,No Aplica,No Aplica,13,Región Metropolitana de Santiago,13,SEREMI Metropolitana de Santiago,No Perteneciente,Hospital,Establecimiento de Salud,SI,NO,Fuerzas Armadas y de Orden (FFAA),Terciario,Hospital FACH,13114,Las Condes,Avenida,8631,Las Condes,227826000,39814,No Aplica,No Aplica,No Aplica,Sin cambio,-33.395327,-70.548074,Fuerzas Armadas y de Orden,Vigente en operación ,Alta Complejidad,Atención Cerrada-Hospitalaria
12-240,112240,No Aplica,No Aplica,13,Región Metropolitana de Santiago,13,SEREMI Metropolitana de Santiago,No Perteneciente,Hospital,Establecimiento de Salud,SI,NO,Fuerzas Armadas y de Orden (FFAA),Terciario,Hospital Carabineros,13120,Ñuñoa,Calle,2200,Simón Bolívar,228700000,39814,No Aplica,No Aplica,No Aplica,Sin cambio,-33.450658,-70.608463,Fuerzas Armadas y de Orden,Vigente en operación ,Alta Complejidad,Atención Cerrada-Hospitalaria
12-244,112244,No Aplica,No Aplica,13,Región Metropolitana de Santiago,13,SEREMI Metropolitana de Santiago,No Perteneciente,Hospital,Establecimiento de Salud,SI,NO,Privado,Terciario,Hospital del Trabajador Santiago,13123,Providencia,Calle,185,Ramón Carnicer,226853333,39814,No Aplica,No Aplica,No Aplica,Sin cambio,-33.443625,-70.632551,Privado,Vigente en operación ,Alta Complejidad,Atención Cerrada-Hospitalaria
12-248,112248,No Aplica,No Aplica,13,Región Metropolitana de Santiago,13,SEREMI Metropolitana de Santiago,No Perteneciente,Hospital,Establecimiento de Salud,SI,NO,Fuerzas Armadas y de Orden (FFAA),Terciario,Hospital Dipreca Teniente Hernán Merino,13114,Las Condes,Calle,1200,Vital Apoquindo,222401282,39814,No Aplica,No Aplica,No Aplica,Sin cambio,-33.418694,-70.529475,Fuerzas Armadas y de Orden,Vigente en operación ,Alta Complejidad,Atención Cerrada-Hospitalaria
12-530,112530,No Aplica,No Aplica,13,Región Metropolitana de Santiago,13,SEREMI Metropolitana de Santiago,No Perteneciente,Hospital,Establecimiento de Salud,SI,NO,Fuerzas Armadas y de Orden (FFAA),Terciario,Hospital Militar de Santiago,13113,La Reina,Avenida,9100,Larraín,223653000,39814,No Aplica,No Aplica,No Aplica,Sin cambio,-33.45281,-70.56351,Fuerzas Armadas y de Orden,Vigente en operación ,Alta Complejidad,Atención Cerrada-Hospitalaria
13-100,113100,No Aplica,No Aplica,13,Región Metropolitana de Santiago,13,Servicio de Salud Metropolitano Sur,Perteneciente,Hospital ,Establecimiento de Salud,SI,Autogestionado en Red ( EAR),Servicio de Salud,Terciario,"Hospital Barros Luco Trudeau (Santiago, San Miguel)",13130,San Miguel,Avenida,3204,Gran Avenida José Miguel Carrera,225763700,39814,No Aplica,No Aplica,No Aplica,Sin cambio,-33.485147,-70.644439,Público ,Vigente en operación ,Alta Complejidad,Atención Cerrada-Hospitalaria
13-130,113130,No Aplica,No Aplica,13,Región Metropolitana de Santiago,13,Servicio de Salud Metropolitano Sur,Perteneciente,Hospital ,Establecimiento de Salud,SI,Autogestionado en Red ( EAR),Servicio de Salud,Terciario,"Hospital Dr. Exequiel González Cortés (Santiago, San Miguel)",13130,San Miguel,Avenida,3300,Gran Avenida José Miguel Carrera,225765700,39814,No Aplica,No Aplica,No Aplica,Sin cambio,-33.484761,-70.648129,Público ,Vigente en operación ,Alta Complejidad,Atención Cerrada-Hospitalaria
13-150,113150,No Aplica,No Aplica,13,Región Metropolitana de Santiago,13,Servicio de Salud Metropolitano Sur,Perteneciente,Hospital,Establecimiento de Salud,SI,NO,Servicio de Salud,Terciario,Hospital San Luis (Buin),13402,Buin,Calle,240,Arturo Prat,225765800,39814,No Aplica,No Aplica,No Aplica,Sin cambio,-33.734263,-70.739547,Público ,Vigente en operación ,Mediana Complejidad,Atención Cerrada-Hospitalaria
13-160,113160,No Aplica,No Aplica,13,Región Metropolitana de Santiago,13,Servicio de Salud Metropolitano Sur,Perteneciente,Hospital,Establecimiento de Salud,NO,NO,Servicio de Salud,Terciario,"Hospital de Enfermedades Infecciosas Dr. Lucio Córdova (Santiago, San Miguel)",13130,San Miguel,Avenida,3204,Gran Avenida José Miguel Carrera ,225763700,39814,No Aplica,No Aplica,No Aplica,Sin cambio,-33.485344,-70.645169,Público ,Vigente en operación ,Mediana Complejidad,Atención Cerrada-Hospitalaria
13-170,113170,No Aplica,No Aplica,13,Región Metropolitana de Santiago,13,Servicio de Salud Metropolitano Sur,Perteneciente,Hospital,Establecimiento de Salud,NO,NO,Servicio de Salud,Terciario,"Hospital Psiquiátrico El Peral (Santiago, Puente Alto)",13201,Puente Alto,Calle,2451,Camilo Henríquez ,225766500,39814,No Aplica,No Aplica,No Aplica,Sin cambio,-33.579233,-70.551417,Público ,Vigente en operación ,Mediana Complejidad,Atención Cerrada-Hospitalaria
13-180,113180,No Aplica,No Aplica,13,Región Metropolitana de Santiago,13,Servicio de Salud Metropolitano Sur,Perteneciente,Hospital ,Establecimiento de Salud,SI,Autogestionado en Red ( EAR),Servicio de Salud,Terciario,"Hospital El Pino (Santiago, San Bernardo)",13401,San Bernardo,Avenida,13560,Padre Hurtado ,225767600,39814,No Aplica,No Aplica,No Aplica,Sin cambio,-33.58435,-70.676793,Público ,Vigente en operación ,Alta Complejidad,Atención Cerrada-Hospitalaria
13-190,113190,No Aplica,No Aplica,13,Región Metropolitana de Santiago,13,Servicio de Salud Metropolitano Sur,Perteneciente,Hospital ,Establecimiento de Salud,SI,NO,Delegados ,Terciario,Hospital Parroquial de San Bernardo (D),13401,San Bernardo,Calle,4,Libertador Bernardo O'Higgins ,223732500,39814,No Aplica,No Aplica,No Aplica,Sin cambio,-33.592835,-70.697393,Pendiente,Vigente en operación ,Alta Complejidad,Atención Cerrada-Hospitalaria
14-101,114101,No Aplica,No Aplica,13,Región Metropolitana de Santiago,14,Servicio de Salud Metropolitano Sur Oriente,Perteneciente,Hospital ,Establecimiento de Salud,SI,Autogestionado en Red ( EAR),Servicio de Salud,Terciario,"Complejo Hospitalario Dr. Sótero del Río (Santiago, Puente Alto)",13201,Puente Alto,Avenida,3459,Concha y Toro,223536000,39814,No Aplica,No Aplica,No Aplica,Sin cambio,-33.577251,-70.581781,Público ,Vigente en operación ,Alta Complejidad,Atención Cerrada-Hospitalaria
14-102,114102,No Aplica,No Aplica,13,Región Metropolitana de Santiago,14,Servicio de Salud Metropolitano Sur Oriente,Perteneciente,Hospital,Establecimiento de Salud,SI,NO,Servicio de Salud,Terciario,Hospital San José de Maipo,13203,San José de Maipo,Avenida,19856,Comercio ,225762700,39814,No Aplica,No Aplica,No Aplica,Sin cambio,-33.641256,-70.352299,Público ,Vigente en operación ,Mediana Complejidad,Atención Cerrada-Hospitalaria
14-103,114103,No Aplica,No Aplica,13,Región Metropolitana de Santiago,14,Servicio de Salud Metropolitano Sur Oriente,Perteneciente,Hospital ,Establecimiento de Salud,SI,Invitados a ser EAR,Servicio de Salud,Terciario,Hospital Padre Alberto Hurtado (San Ramón),13131,San Ramón,Calle,2150,Esperanza ,225760600,36108,No Aplica,No Aplica,No Aplica,Sin cambio,-33.5525,-70.635024,Público ,Vigente en operación ,Alta Complejidad,Atención Cerrada-Hospitalaria
14-104,114104,No Aplica,No Aplica,13,Región Metropolitana de Santiago,10,Servicio de Salud Metropolitano Occidente,Perteneciente,Hospital ,Establecimiento de Salud,NO,NO,Servicio de Salud,Terciario,Hospital Metropolitano (Ex Militar),13123,Providencia,Calle,50,Holanda ,Pendiente ,Sin dato,No Aplica,No Aplica,No Aplica,Se reabre por contingencia Covid-19 Abril 2020,-33.418942,-70.605168,Público ,Vigente en operación ,Alta Complejidad,Atención Cerrada-Hospitalaria
14-105,114105,No Aplica,No Aplica,13,Región Metropolitana de Santiago,14,Servicio de Salud Metropolitano Sur Oriente,Perteneciente,Hospital ,Establecimiento de Salud,SI,Invitados a ser EAR,Servicio de Salud,Terciario,Hospital Clínico Metropolitano La Florida Dra. Eloísa Díaz Insunza,13110,La Florida,Calle,6542,Froilan Roa,225681880,39814,No Aplica,No Aplica,No Aplica,Sin cambio,-33.514161,-70.599148,Público ,Vigente en operación ,Alta Complejidad,Atención Cerrada-Hospitalaria
14-204,114204,No Aplica,No Aplica,13,Región Metropolitana de Santiago,14,Servicio de Salud Metropolitano Sur Oriente,Perteneciente,Hospital,Establecimiento de Salud,NO,NO,Delegados ,Terciario,Centro de Enfermedades Respiratorias Infantiles Josefina Martínez (D),13201,Puente Alto,Avenida,3691,Camilo Henríquez ,227209000,39814,No Aplica,No Aplica,No Aplica,Sin cambio,-33.569382,-70.554425,Pendiente,Vigente en operación ,Mediana Complejidad,Atención Cerrada-Hospitalaria
15-100,115100,No Aplica,No Aplica,6,Región Del Libertador Gral. B. O'Higgins,15,Servicio de Salud Del Libertador B.O'Higgins,Perteneciente,Hospital ,Establecimiento de Salud,SI,Autogestionado en Red ( EAR),Servicio de Salud,Terciario,Hospital Regional de Rancagua,6101,Rancagua,Calle,611,Alameda,722728157,39814,No Aplica,No Aplica,No Aplica,Sin cambio,-34.164489,-70.741937,Público ,Vigente en operación ,Alta Complejidad,Atención Cerrada-Hospitalaria
15-101,115101,No Aplica,No Aplica,6,Región Del Libertador Gral. B. O'Higgins,15,Servicio de Salud Del Libertador B.O'Higgins,Perteneciente,Hospital ,Establecimiento de Salud,SI,NO,Servicio de Salud,Primario-Secundario ( Por confirmar),Hospital Santa Filomena de Graneros,6106,Graneros,Avenida,550,Compañía ,722337600,39814,No Aplica,No Aplica,No Aplica,Sin cambio,-34.06706,-70.730862,Público ,Vigente en operación ,Baja Complejidad,Atención Cerrada-Hospitalaria
15-102,115102,No Aplica,No Aplica,6,Región Del Libertador Gral. B. O'Higgins,15,Servicio de Salud Del Libertador B.O'Higgins,Perteneciente,Hospital ,Establecimiento de Salud,SI,NO,Servicio de Salud,Primario-Secundario ( Por confirmar),Hospital de Coínco,6103,Coinco,Calle,157,Francisco Díaz Muñoz,722337550,39814,No Aplica,No Aplica,No Aplica,Sin cambio,-34.268594,-70.953919,Público ,Vigente en operación ,Baja Complejidad,Atención Cerrada-Hospitalaria
15-103,115103,No Aplica,No Aplica,6,Región Del Libertador Gral. B. O'Higgins,15,Servicio de Salud Del Libertador B.O'Higgins,Perteneciente,Hospital ,Establecimiento de Salud,SI,NO,Servicio de Salud,Primario-Secundario ( Por confirmar),Hospital Del Salvador de Peumo,6112,Peumo,Calle,20,San Juan de Dios ,722336920,39814,No Aplica,No Aplica,No Aplica,Sin cambio,-34.389587,-71.173054,Público ,Vigente en operación ,Baja Complejidad,Atención Cerrada-Hospitalaria
15-104,115104,No Aplica,No Aplica,6,Región Del Libertador Gral. B. O'Higgins,15,Servicio de Salud Del Libertador B.O'Higgins,Perteneciente,Hospital,Establecimiento de Salud,SI,NO,Servicio de Salud,Terciario,Hospital Dr. Ricardo Valenzuela Sáez (Rengo),6115,Rengo,Avenida,210,Renato Correa Labra,722337317,39814,No Aplica,No Aplica,No Aplica,Sin cambio,-34.411325,-70.853259,Público ,Vigente en operación ,Mediana Complejidad,Atención Cerrada-Hospitalaria
15-105,115105,No Aplica,No Aplica,6,Región Del Libertador Gral. B. O'Higgins,15,Servicio de Salud Del Libertador B.O'Higgins,Perteneciente,Hospital ,Establecimiento de Salud,SI,NO,Servicio de Salud,Primario-Secundario ( Por confirmar),Hospital San Vicente de Tagua -Tagua,6117,San Vicente,Calle,1100,Juan Bautista Pastene ,722336300,39814,No Aplica,No Aplica,No Aplica,Sin cambio,-34.441101,-71.080619,Público ,Vigente en operación ,Baja Complejidad,Atención Cerrada-Hospitalaria
15-106,115106,No Aplica,No Aplica,6,Región Del Libertador Gral. B. O'Higgins,15,Servicio de Salud Del Libertador B.O'Higgins,Perteneciente,Hospital ,Establecimiento de Salud,SI,NO,Servicio de Salud,Primario-Secundario ( Por confirmar),Hospital de Pichidegua,6113,Pichidegua,Calle,160,O'Higgins,722337000,39814,No Aplica,No Aplica,No Aplica,Sin cambio,-34.359248,-71.28325,Público ,Vigente en operación ,Baja Complejidad,Atención Cerrada-Hospitalaria
15-107,115107,No Aplica,No Aplica,6,Región Del Libertador Gral. B. O'Higgins,15,Servicio de Salud Del Libertador B.O'Higgins,Perteneciente,Hospital ,Establecimiento de Salud,SI,Autogestionado en Red ( EAR),Servicio de Salud,Terciario,Hospital San Juan de Dios de San Fernando,6301,San Fernando,Calle,1401,Negrete,722335100,39814,No Aplica,No Aplica,No Aplica,Sin cambio,-34.575908,-70.992563,Público ,Vigente en operación ,Alta Complejidad,Atención Cerrada-Hospitalaria
15-108,115108,No Aplica,No Aplica,6,Región Del Libertador Gral. B. O'Higgins,15,Servicio de Salud Del Libertador B.O'Higgins,Perteneciente,Hospital ,Establecimiento de Salud,SI,NO,Servicio de Salud,Primario-Secundario ( Por confirmar),Hospital Mercedes de Chimbarongo,6303,Chimbarongo,Calle,990,Miraflores ,722337940,39814,No Aplica,No Aplica,No Aplica,Sin cambio,-34.702511,-71.036639,Público ,Vigente en operación ,Baja Complejidad,Atención Cerrada-Hospitalaria
15-109,115109,No Aplica,No Aplica,6,Región Del Libertador Gral. B. O'Higgins,15,Servicio de Salud Del Libertador B.O'Higgins,Perteneciente,Hospital ,Establecimiento de Salud,SI,NO,Servicio de Salud,Primario-Secundario ( Por confirmar),Hospital de Nancagua,6305,Nancagua,Calle,464,18 de Septiembre ,722337500,39814,No Aplica,No Aplica,No Aplica,Sin cambio,-34.649785,-71.204874,Público ,Vigente en operación ,Baja Complejidad,Atención Cerrada-Hospitalaria
15-110,115110,No Aplica,No Aplica,6,Región Del Libertador Gral. B. O'Higgins,15,Servicio de Salud Del Libertador B.O'Higgins,Perteneciente,Hospital,Establecimiento de Salud,SI,NO,Servicio de Salud,Terciario,Hospital de Santa Cruz,6310,Santa Cruz,Avenida,921,Federico Errázuriz ,722332273,39814,No Aplica,No Aplica,No Aplica,Sin cambio,-34.634422,-71.35723,Público ,Vigente en operación ,Mediana Complejidad,Atención Cerrada-Hospitalaria
15-111,115111,No Aplica,No Aplica,6,Región Del Libertador Gral. B. O'Higgins,15,Servicio de Salud Del Libertador B.O'Higgins,Perteneciente,Hospital ,Establecimiento de Salud,SI,NO,Servicio de Salud,Primario-Secundario ( Por confirmar),Hospital de Marchigüe,6204,Marchihue,Calle,410,Laureano Cornejo,722336850,39814,No Aplica,No Aplica,No Aplica,Sin cambio,-34.39882,-71.61712,Público ,Vigente en operación ,Baja Complejidad,Atención Cerrada-Hospitalaria
15-112,115112,No Aplica,No Aplica,6,Región Del Libertador Gral. B. O'Higgins,15,Servicio de Salud Del Libertador B.O'Higgins,Perteneciente,Hospital ,Establecimiento de Salud,SI,NO,Servicio de Salud,Primario-Secundario ( Por confirmar),Hospital de Pichilemu,6201,Pichilemu,Calle,151,Errázuriz,722336600,39814,No Aplica,No Aplica,No Aplica,Sin cambio,-34.386509,-72.013232,Público ,Vigente en operación ,Baja Complejidad,Atención Cerrada-Hospitalaria
15-113,115113,No Aplica,No Aplica,6,Región Del Libertador Gral. B. O'Higgins,15,Servicio de Salud Del Libertador B.O'Higgins,Perteneciente,Hospital ,Establecimiento de Salud,SI,NO,Servicio de Salud,Primario-Secundario ( Por confirmar),Hospital de Lolol,6304,Lolol,Calle,35,Los Alerces ,722337800,39814,No Aplica,No Aplica,No Aplica,Sin cambio,-34.728217,-71.646665,Público ,Vigente en operación ,Baja Complejidad,Atención Cerrada-Hospitalaria
15-114,115114,No Aplica,No Aplica,6,Región Del Libertador Gral. B. O'Higgins,15,Servicio de Salud Del Libertador B.O'Higgins,Perteneciente,Hospital ,Establecimiento de Salud,SI,NO,Servicio de Salud,Primario-Secundario ( Por confirmar),Hospital de Litueche,6203,Litueche,Calle,728,Cardenal Caro ,722337050,39814,No Aplica,No Aplica,No Aplica,Sin cambio,-34.115513,-71.729399,Público ,Vigente en operación ,Baja Complejidad,Atención Cerrada-Hospitalaria
15-202,115202,No Aplica,No Aplica,6,Región Del Libertador Gral. B. O'Higgins,6,SEREMI Del Libertador Gral. B. O'Higgins,No Perteneciente,Hospital,Establecimiento de Salud,NO,NO,Privado,Terciario,Hospital del Trabajador AChS,6101,Rancagua,Avenida,317,Libertador Bernardo O'Higgins,722205500,39814,No Aplica,No Aplica,No Aplica,Sin cambio,-34.166707,-70.729041,Privado,Vigente en operación ,Pendiente,Atención Abierta-Ambulatoria
15-206,115206,No Aplica,No Aplica,6,Región Del Libertador Gral. B. O'Higgins,6,SEREMI Del Libertador Gral. B. O'Higgins,No Perteneciente,Hospital,Establecimiento de Salud,SI,NO,Privado,Terciario,Hospital Clínico Fusat Rancagua,6101,Rancagua,Calle,1002,Carretera del Cobre,722205300,39814,No Aplica,No Aplica,No Aplica,Sin cambio,-34.18893,-70.71316,Privado,Vigente en operación ,Alta Complejidad,Atención Cerrada-Hospitalaria
15-241,115241,No Aplica,No Aplica,6,Región Del Libertador Gral. B. O'Higgins,6,SEREMI Del Libertador Gral. B. O'Higgins,No Perteneciente,Hospital,Establecimiento de Salud,NO,NO,Gendamería,Terciario,Hospital Penitenciario de Rancagua,6101,Rancagua,Calle,S/N,La Gonzalina,722326649,39814,No Aplica,No Aplica,No Aplica,Sin cambio,-34.13996,-70.77798,Gendarmería,Vigente en operación ,Baja Complejidad,Atención Cerrada-Hospitalaria
16-100,116100,No Aplica,No Aplica,7,Región Del Maule,16,Servicio de Salud Del Maule,Perteneciente,Hospital,Establecimiento de Salud,SI,Autogestionado en Red ( EAR),Servicio de Salud,Terciario,Hospital San Juan de Dios (Curicó),7301,Curicó,Calle,121,Chacabuco,752565900,39814,No Aplica,No Aplica,No Aplica,Sin cambio,-34.989789,-71.23577,Público ,Vigente en operación ,Alta Complejidad,Atención Cerrada-Hospitalaria
16-101,116101,No Aplica,No Aplica,7,Región Del Maule,16,Servicio de Salud Del Maule,Perteneciente,Hospital,Establecimiento de Salud,SI,NO,Servicio de Salud,Primario-Secundario ( Por confirmar),Hospital de Teno,7308,Teno,Calle,S/N,Arturo Prat ,752565510,39814,No Aplica,No Aplica,No Aplica,Sin cambio,-34.870946,-71.16378,Público ,Vigente en operación ,Baja Complejidad,Atención Cerrada-Hospitalaria
16-102,116102,No Aplica,No Aplica,7,Región Del Maule,16,Servicio de Salud Del Maule,Perteneciente,Hospital,Establecimiento de Salud,SI,NO,Servicio de Salud,Primario-Secundario ( Por confirmar),Hospital de Molina,7304,Molina,Avenida,2768,Luis Cruz Martínez ,752565200,39814,No Aplica,No Aplica,No Aplica,Sin cambio,-35.107762,-71.295787,Público ,Vigente en operación ,Baja Complejidad,Atención Cerrada-Hospitalaria
16-103,116103,No Aplica,No Aplica,7,Región Del Maule,16,Servicio de Salud Del Maule,Perteneciente,Hospital,Establecimiento de Salud,SI,NO,Servicio de Salud,Primario-Secundario ( Por confirmar),Hospital de Hualañé,7302,Hualañé,Avenida,402,Libertad ,752565451,39814,No Aplica,No Aplica,No Aplica,Sin cambio,-34.97638,-71.805559,Público ,Vigente en operación ,Baja Complejidad,Atención Cerrada-Hospitalaria
16-104,116104,No Aplica,No Aplica,7,Región Del Maule,16,Servicio de Salud Del Maule,Perteneciente,Hospital,Establecimiento de Salud,SI,NO,Servicio de Salud,Primario-Secundario ( Por confirmar),Hospital de Licantén,7303,Licantén,Avenida,685,Lautaro ,752565760,39814,No Aplica,No Aplica,No Aplica,Sin cambio,-34.982716,-71.990656,Público ,Vigente en operación ,Baja Complejidad,Atención Cerrada-Hospitalaria
16-105,116105,No Aplica,No Aplica,7,Región Del Maule,16,Servicio de Salud Del Maule,Perteneciente,Hospital,Establecimiento de Salud,SI,Autogestionado en Red ( EAR),Servicio de Salud,Terciario,Hospital Dr. César Garavagno Burotto (Talca),7101,Talca,Calle,1990,1 Norte ,712747000,39814,No Aplica,No Aplica,No Aplica,Sin cambio,-35.426896,-71.646373,Público ,Vigente en operación ,Alta Complejidad,Atención Cerrada-Hospitalaria
16-106,116106,No Aplica,No Aplica,7,Región Del Maule,16,Servicio de Salud Del Maule,Perteneciente,Hospital,Establecimiento de Salud,SI,NO,Servicio de Salud,Primario-Secundario ( Por confirmar),Hospital de Curepto,7103,Curepto,Calle,24,Pedro Antonio González ,752565600,39814,No Aplica,No Aplica,No Aplica,Sin cambio,-35.093204,-72.020986,Público ,Vigente en operación ,Baja Complejidad,Atención Cerrada-Hospitalaria
16-107,116107,No Aplica,No Aplica,7,Región Del Maule,16,Servicio de Salud Del Maule,Perteneciente,Hospital,Establecimiento de Salud,SI,NO,Servicio de Salud,Terciario,Hospital de Constitución,7102,Constitución,Calle,200,Hospital ,712411900,39814,No Aplica,No Aplica,No Aplica,Sin cambio,-35.339432,-72.402702,Público ,Vigente en operación ,Mediana Complejidad,Atención Cerrada-Hospitalaria
16-108,116108,No Aplica,No Aplica,7,Región Del Maule,16,Servicio de Salud Del Maule,Perteneciente,Hospital,Establecimiento de Salud,SI,Autogestionado en Red ( EAR),Servicio de Salud,Terciario,Hospital Presidente Carlos Ibáñez del Campo (Linares),7401,Linares,Avenida,753,Brasil,732566500,39814,No Aplica,No Aplica,No Aplica,Sin cambio,-35.844282,-71.590991,Público ,Vigente en operación ,Alta Complejidad,Atención Cerrada-Hospitalaria
16-109,116109,No Aplica,No Aplica,7,Región Del Maule,16,Servicio de Salud Del Maule,Perteneciente,Hospital,Establecimiento de Salud,SI,NO,Servicio de Salud,Terciario,Hospital Dr. Abel Fuentealba Lagos de San Javier,7406,San Javier,Calle,1131,Riquelme ,732566300,39814,No Aplica,No Aplica,No Aplica,Cambio de Complejidad de Baja a Mediana,-35.590724,-71.737445,Público ,Vigente en operación ,Mediana Complejidad,Atención Cerrada-Hospitalaria
16-110,116110,No Aplica,No Aplica,7,Región Del Maule,16,Servicio de Salud Del Maule,Perteneciente,Hospital,Establecimiento de Salud,SI,NO,Servicio de Salud,Terciario,Hospital San José (Parral),7404,Parral,Calle,1255,Aníbal Pinto ,732566887,39814,No Aplica,No Aplica,No Aplica,Sin cambio,-36.141982,-71.814027,Público ,Vigente en operación ,Mediana Complejidad,Atención Cerrada-Hospitalaria
16-111,116111,No Aplica,No Aplica,7,Región Del Maule,16,Servicio de Salud Del Maule,Perteneciente,Hospital,Establecimiento de Salud,SI,NO,Servicio de Salud,Terciario,Hospital San Juan de Dios (Cauquenes),7201,Cauquenes,Calle,S/N,Manuel Montt ,732567031,39814,No Aplica,No Aplica,No Aplica,Sin cambio,-35.963105,-72.32527,Público ,Vigente en operación ,Mediana Complejidad,Atención Cerrada-Hospitalaria
16-112,116112,No Aplica,No Aplica,7,Región Del Maule,16,Servicio de Salud Del Maule,Perteneciente,Hospital,Establecimiento de Salud,SI,NO,Servicio de Salud,Primario-Secundario ( Por confirmar),Hospital Dr. Benjamín Pedreros (Chanco),7202,Chanco,Avenida,S/N,Padre Rolando Escobar,732566866,39814,No Aplica,No Aplica,No Aplica,Sin cambio,-35.739564,-72.531446,Público ,Vigente en operación ,Baja Complejidad,Atención Cerrada-Hospitalaria
17-101,117101,No Aplica,No Aplica,16,Región De Ñuble,17,Servicio de Salud Ñuble,Perteneciente,Hospital,Establecimiento de Salud,SI,Autogestionado en Red ( EAR),Servicio de Salud,Terciario,Hospital Clínico Herminda Martín (Chillán),16101,Chillán ,Calle,10,Francisco Ramírez ,422586792,39814,No Aplica,No Aplica,No Aplica,Sin cambio,-36.608831,-72.092671,Público ,Vigente en operación ,Alta Complejidad,Atención Cerrada-Hospitalaria
17-102,117102,No Aplica,No Aplica,16,Región De Ñuble,17,Servicio de Salud Ñuble,Perteneciente,Hospital,Establecimiento de Salud,SI,Autogestionado en Red ( EAR),Servicio de Salud,Terciario,Hospital de San Carlos,16301,San Carlos,Calle,448,Gazmuri,422586192,39814,No Aplica,No Aplica,No Aplica,Sin cambio,-36.429931,-71.959831,Público ,Vigente en operación ,Alta Complejidad,Atención Cerrada-Hospitalaria
17-103,117103,No Aplica,No Aplica,16,Región De Ñuble,17,Servicio de Salud Ñuble,Perteneciente,Hospital,Establecimiento de Salud,SI,NO,Servicio de Salud,Primario-Secundario ( Por confirmar),Hospital Comunitario de Salud Familiar de Bulnes,16102,Bulnes,Calle,431,Balmaceda ,422585939,39814,No Aplica,No Aplica,No Aplica,Sin cambio,-36.739712,-72.296417,Público ,Vigente en operación ,Baja Complejidad,Atención Cerrada-Hospitalaria
17-104,117104,No Aplica,No Aplica,16,Región De Ñuble,17,Servicio de Salud Ñuble,Perteneciente,Hospital,Establecimiento de Salud,SI,NO,Servicio de Salud,Primario-Secundario ( Por confirmar),Hospital Comunitario de Salud Familiar Pedro Morales Campos (Yungay),16109,Yungay,Calle,658,Angamos ,422585736,39814,No Aplica,No Aplica,No Aplica,Sin cambio,-37.121823,-72.023846,Público ,Vigente en operación ,Baja Complejidad,Atención Cerrada-Hospitalaria
17-106,117106,No Aplica,No Aplica,16,Región De Ñuble,17,Servicio de Salud Ñuble,Perteneciente,Hospital,Establecimiento de Salud,SI,NO,Servicio de Salud,Primario-Secundario ( Por confirmar),Hospital Comunitario de Salud Familiar de Quirihue,16201,Quirihue,Calle,S/N,Prat (Ruta 126),422586020,39814,No Aplica,No Aplica,No Aplica,Sin cambio,-36.286435,-72.547541,Público ,Vigente en operación ,Baja Complejidad,Atención Cerrada-Hospitalaria
17-107,117107,No Aplica,No Aplica,16,Región De Ñuble,17,Servicio de Salud Ñuble,Perteneciente,Hospital,Establecimiento de Salud,SI,NO,Servicio de Salud,Primario-Secundario ( Por confirmar),Hospital Comunitario de Salud Familiar de El Carmen,16104,El Carmen,Calle,448,Isabel Riquelme ,422585710,39814,No Aplica,No Aplica,No Aplica,Sin cambio,-36.898017,-72.034874,Público ,Vigente en operación ,Baja Complejidad,Atención Cerrada-Hospitalaria
17-108,117108,No Aplica,No Aplica,16,Región De Ñuble,17,Servicio de Salud Ñuble,Perteneciente,Hospital,Establecimiento de Salud,SI,NO,Servicio de Salud,Primario-Secundario ( Por confirmar),Hospital Comunitario de Salud Familiar Dr. Eduardo Contreras Trabucco de Coelemu,16203,Coelemu,Calle,370,Manuel Antonio Matta ,422585564,39814,No Aplica,No Aplica,No Aplica,Sin cambio,-36.490268,-72.70531,Público ,Vigente en operación ,Baja Complejidad,Atención Cerrada-Hospitalaria
18-100,118100,No Aplica,No Aplica,8,Región Del Bíobío,18,Servicio de Salud Concepción,Perteneciente,Hospital,Establecimiento de Salud,SI,Autogestionado en Red ( EAR),Servicio de Salud,Terciario,Hospital Clínico Regional Dr. Guillermo Grant Benavente (Concepción),8101,Concepción,Calle,1436,San Martín ,412417588,39814,No Aplica,No Aplica,No Aplica,Sin cambio,-36.82511,-73.037951,Público ,Vigente en operación ,Alta Complejidad,Atención Cerrada-Hospitalaria
18-103,118103,No Aplica,No Aplica,8,Región Del Bíobío,18,Servicio de Salud Concepción,Perteneciente,Hospital,Establecimiento de Salud,NO,NO,Servicio de Salud,Terciario,Hospital Traumatológico (Concepción),8101,Concepción,Calle,1580,San Martín ,412412003,39814,No Aplica,No Aplica,No Aplica,Sin cambio,-36.824105,-73.037815,Público ,Vigente en operación ,Mediana Complejidad,Atención Cerrada-Hospitalaria
18-105,118105,No Aplica,No Aplica,8,Región Del Bíobío,18,Servicio de Salud Concepción,Perteneciente,Hospital,Establecimiento de Salud,SI,Autogestionado en Red ( EAR),Servicio de Salud,Terciario,Hospital San José (Coronel),8102,Coronel,Calle,702,Lautaro ,412413306,39814,No Aplica,No Aplica,No Aplica,Sin cambio,-37.028242,-73.135861,Público ,Vigente en operación ,Alta Complejidad,Atención Cerrada-Hospitalaria
18-106,118106,No Aplica,No Aplica,8,Región Del Bíobío,18,Servicio de Salud Concepción,Perteneciente,Hospital,Establecimiento de Salud,SI,Autogestionado en Red ( EAR),Servicio de Salud,Terciario,Hospital de Lota,8106,Lota,Calle,702,Carrera,412411249,39814,No Aplica,No Aplica,No Aplica,Sin cambio,-37.09019,-73.155535,Público ,Vigente en operación ,Alta Complejidad,Atención Cerrada-Hospitalaria
18-107,118107,No Aplica,No Aplica,8,Región Del Bíobío,18,Servicio de Salud Concepción,Perteneciente,Hospital,Establecimiento de Salud,SI,NO,Servicio de Salud,Primario-Secundario ( Por confirmar),Hospital Clorinda Avello (Santa Juana),8109,Santa Juana,Calle,900,Lautaro ,412721050,39814,No Aplica,No Aplica,No Aplica,Sin cambio,-37.168311,-72.94617,Público ,Vigente en operación ,Baja Complejidad,Atención Cerrada-Hospitalaria
18-108,118108,No Aplica,No Aplica,8,Región Del Bíobío,18,Servicio de Salud Concepción,Perteneciente,Hospital,Establecimiento de Salud,SI,NO,Servicio de Salud,Primario-Secundario ( Por confirmar),Hospital San Agustín de Florida,8104,Florida,Calle,1114,"Sargento Aldea, Florida Alto",412721550,39814,No Aplica,No Aplica,No Aplica,Sin cambio,-36.822577,-72.649123,Público ,Vigente en operación ,Baja Complejidad,Atención Cerrada-Hospitalaria
18-200,118200,No Aplica,No Aplica,8,Región Del Bíobío,8,SEREMI Del Biobío,No Perteneciente,Hospital,Establecimiento de Salud,SI,NO,Privado,Terciario,Hospital Clínico del Sur S.A.,8101,Concepción,Calle,36,Cardenio Avello,412128122,39814,No Aplica,No Aplica,No Aplica,Sin cambio,-36.813968,-73.031793,Privado,Vigente en operación ,Alta Complejidad,Atención Cerrada-Hospitalaria
18-519,118519,No Aplica,No Aplica,8,Región Del Bíobío,8,SEREMI Del Biobío,No Perteneciente,Hospital,Establecimiento de Salud,NO,NO,Gendamería,Terciario,Hospital de Centro de Cumplimiento Penitenciario Biobío,8101,Concepción,Calle,450,Camino a Penco,Pendiente ,39814,No Aplica,No Aplica,No Aplica,Sin cambio,-36.804048,-73.022926,Gendarmería,Vigente en operación ,Baja Complejidad,Atención Cerrada-Hospitalaria
19-100,119100,No Aplica,No Aplica,8,Región Del Bíobío,19,Servicio de Salud Talcahuano,Perteneciente,Hospital,Establecimiento de Salud,SI,Autogestionado en Red ( EAR),Servicio de Salud,Terciario,Hospital Las Higueras (Talcahuano),8110,Talcahuano,Calle,777,Alto Horno ,412687000,39814,No Aplica,No Aplica,No Aplica,Sin cambio,-36.740101,-73.108694,Público ,Vigente en operación ,Alta Complejidad,Atención Cerrada-Hospitalaria
19-101,119101,No Aplica,No Aplica,8,Región Del Bíobío,19,Servicio de Salud Talcahuano,Perteneciente,Hospital,Establecimiento de Salud,SI,Autogestionado en Red ( EAR),Servicio de Salud,Terciario,Hospital de Tomé,8111,Tome,Calle,1633,O'Higgins,412724950,39814,No Aplica,No Aplica,No Aplica,Sin cambio,-36.613323,-72.954554,Público ,Vigente en operación ,Alta Complejidad,Atención Cerrada-Hospitalaria
19-102,119102,No Aplica,No Aplica,8,Región Del Bíobío,19,Servicio de Salud Talcahuano,Perteneciente,Hospital,Establecimiento de Salud,SI,Invitados a ser EAR,Servicio de Salud,Terciario,Hospital Penco Lirquén,8107,Penco,Calle,S/N,Camino a Tomé,412724800,39814,No Aplica,No Aplica,No Aplica,Sin cambio,-36.719574,-72.975452,Público ,Vigente en operación ,Mediana Complejidad,Atención Cerrada-Hospitalaria
19-200,119200,No Aplica,No Aplica,8,Región Del Bíobío,8,SEREMI Del Biobío,No Perteneciente,Hospital,Establecimiento de Salud,SI,NO,Privado,Terciario,Hospital Instituto de Seguridad del Trabajo Talcahuano,8110,Talcahuano,Avenida,3430,Colón,412585232,39814,No Aplica,No Aplica,No Aplica,Sin cambio,-36.7855,-73.0649,Privado,Vigente en operación ,Baja Complejidad,Atención Cerrada-Hospitalaria
19-203,119203,No Aplica,No Aplica,8,Región Del Bíobío,8,SEREMI Del Biobío,No Perteneciente,Hospital,Establecimiento de Salud,SI,NO,Fuerzas Armadas y de Orden (FFAA),Terciario,Hospital Naval Almirante Adriazola,8110,Talcahuano,Calle,S/N,Michimalongo,412743009,39814,No Aplica,No Aplica,No Aplica,Sin cambio,-36.69034,-73.11422,Fuerzas Armadas y de Orden,Vigente en operación ,Mediana Complejidad,Atención Cerrada-Hospitalaria
20-101,120101,No Aplica,No Aplica,8,Región Del Bíobío,20,Servicio de Salud Biobío,Perteneciente,Hospital,Establecimiento de Salud,SI,Autogestionado en Red ( EAR),Servicio de Salud,Terciario,Complejo Asistencial Dr. Víctor Ríos Ruiz (Los Ángeles),8301,Los Ángeles,Avenida,147,Ricardo Vicuña ,432336000,39814,No Aplica,No Aplica,No Aplica,Sin cambio,-37.47365,-72.346903,Público ,Vigente en operación ,Alta Complejidad,Atención Cerrada-Hospitalaria
20-102,120102,No Aplica,No Aplica,8,Región Del Bíobío,20,Servicio de Salud Biobío,Perteneciente,Hospital,Establecimiento de Salud,SI,NO,Servicio de Salud,Primario-Secundario ( Por confirmar),Hospital de Mulchén,8305,Mulchén,Calle,455,Villagra ,432332282,39814,No Aplica,No Aplica,No Aplica,Sin cambio,-37.720357,-72.240649,Público ,Vigente en operación ,Baja Complejidad,Atención Cerrada-Hospitalaria
20-103,120103,No Aplica,No Aplica,8,Región Del Bíobío,20,Servicio de Salud Biobío,Perteneciente,Hospital,Establecimiento de Salud,SI,NO,Servicio de Salud,Primario-Secundario ( Por confirmar),Hospital Comunitario y Familiar de Nacimiento,8306,Nacimiento,Calle,S/N,Julio Hemmelmann ,432332970,39814,No Aplica,No Aplica,No Aplica,Sin cambio,-37.507514,-72.676335,Público ,Vigente en operación ,Baja Complejidad,Atención Cerrada-Hospitalaria
20-104,120104,No Aplica,No Aplica,8,Región Del Bíobío,20,Servicio de Salud Biobío,Perteneciente,Hospital,Establecimiento de Salud,SI,NO,Servicio de Salud,Primario-Secundario ( Por confirmar),Hospital Comunitario de Yumbel,8313,Yumbel,Calle,251,Castellón,432332350,39814,No Aplica,No Aplica,No Aplica,Sin cambio,-37.096364,-72.557662,Público ,Vigente en operación ,Baja Complejidad,Atención Cerrada-Hospitalaria
20-105,120105,No Aplica,No Aplica,8,Región Del Bíobío,20,Servicio de Salud Biobío,Perteneciente,Hospital,Establecimiento de Salud,SI,NO,Servicio de Salud,Primario-Secundario ( Por confirmar),Hospital Comunitario de Laja,8304,Laja,Avenida,800,Los Ríos,432332634,39814,No Aplica,No Aplica,No Aplica,Sin cambio,-37.26429,-72.709237,Público ,Vigente en operación ,Baja Complejidad,Atención Cerrada-Hospitalaria
20-106,120106,No Aplica,No Aplica,8,Región Del Bíobío,20,Servicio de Salud Biobío,Perteneciente,Hospital,Establecimiento de Salud,SI,NO,Servicio de Salud,Primario-Secundario ( Por confirmar),Hospital Comunitario de Santa Bárbara,8311,Santa Bárbara,Calle,S/N,Salamanca ,432332770,39814,No Aplica,No Aplica,No Aplica,Sin cambio,-37.668147,-72.016676,Público ,Vigente en operación ,Baja Complejidad,Atención Cerrada-Hospitalaria
20-107,120107,No Aplica,No Aplica,8,Región Del Bíobío,20,Servicio de Salud Biobío,Perteneciente,Hospital,Establecimiento de Salud,SI,NO,Servicio de Salud,Primario-Secundario ( Por confirmar),Hospital Comunitario Dr. Roberto Muñoz Urrutia de Huépil,8312,Tucapel,Calle,233,12 de Febrero,432332613,39814,No Aplica,No Aplica,No Aplica,Sin cambio,-37.240323,-71.942299,Público ,Vigente en operación ,Baja Complejidad,Atención Cerrada-Hospitalaria
20-213,120213,No Aplica,No Aplica,8,Región Del Bíobío,8,SEREMI Del Biobío,No Perteneciente,Hospital,Establecimiento de Salud,NO,NO,Privado,Terciario,Hospital Mutual de Seguridad CChC Los Ángeles,8301,Los Ángeles,Calle,850,Mendoza,432322177,39814,No Aplica,No Aplica,No Aplica,Sin cambio,-37.463026,-72.353895,Privado,Vigente en operación ,Pendiente,Atención Abierta-Ambulatoria
21-109,121109,No Aplica,No Aplica,9,Región De La Araucanía,21,Servicio de Salud Araucanía Sur,Perteneciente,Hospital,Establecimiento de Salud,SI,Autogestionado en Red ( EAR),Servicio de Salud,Terciario,Hospital Dr. Hernán Henríquez Aravena (Temuco),9101,Temuco,Calle,115,Montt,452296537,23065,No Aplica,No Aplica,No Aplica,Sin cambio,-38.736532,-72.599238,Público ,Vigente en operación ,Alta Complejidad,Atención Cerrada-Hospitalaria
21-110,121110,No Aplica,No Aplica,9,Región De La Araucanía,21,Servicio de Salud Araucanía Sur,Perteneciente,Hospital,Establecimiento de Salud,SI,NO,Servicio de Salud,Terciario,Hospital Dr. Abraham Godoy Peña (Lautaro),9108,Lautaro,Avenida,850,Diego Barros Arana,452552750,39814,No Aplica,No Aplica,No Aplica,Sin cambio,-38.537076,-72.418384,Público ,Vigente en operación ,Mediana Complejidad,Atención Cerrada-Hospitalaria
21-111,121111,No Aplica,No Aplica,9,Región De La Araucanía,21,Servicio de Salud Araucanía Sur,Perteneciente,Hospital,Establecimiento de Salud,SI,NO,Servicio de Salud,Primario-Secundario ( Por confirmar),Hospital de Galvarino,9106,Galvarino,Calle,498,Mac Iver ,452552152,39814,No Aplica,No Aplica,No Aplica,Sin cambio,-38.410261,-72.785259,Público ,Vigente en operación ,Baja Complejidad,Atención Cerrada-Hospitalaria
21-112,121112,No Aplica,No Aplica,9,Región De La Araucanía,21,Servicio de Salud Araucanía Sur,Perteneciente,Hospital,Establecimiento de Salud,SI,NO,Servicio de Salud,Primario-Secundario ( Por confirmar),Hospital de Vilcún,9119,Vilcún,Calle,680,Bulnes ,452555450,39814,No Aplica,No Aplica,No Aplica,Sin cambio,-38.666384,-72.227574,Público ,Vigente en operación ,Baja Complejidad,Atención Cerrada-Hospitalaria
21-113,121113,No Aplica,No Aplica,9,Región De La Araucanía,21,Servicio de Salud Araucanía Sur,Perteneciente,Hospital,Establecimiento de Salud,SI,NO,Servicio de Salud,Primario-Secundario ( Por confirmar),Hospital Dr. Eduardo González Galeno (Cunco),9103,Cunco,Avenida,31,Santa María ,452552050,26665,No Aplica,No Aplica,No Aplica,Sin cambio,-38.930939,-72.037611,Público ,Vigente en operación ,Baja Complejidad,Atención Cerrada-Hospitalaria
21-114,121114,No Aplica,No Aplica,9,Región De La Araucanía,21,Servicio de Salud Araucanía Sur,Perteneciente,Hospital,Establecimiento de Salud,SI,NO,Servicio de Salud,Terciario,Hospital Intercultural de Nueva Imperial,9111,Nueva Imperial,Calle,115,Castellón,452577866,25204,No Aplica,No Aplica,No Aplica,Sin cambio,-38.740329,-72.958314,Público ,Vigente en operación ,Mediana Complejidad,Atención Cerrada-Hospitalaria
21-115,121115,No Aplica,No Aplica,9,Región De La Araucanía,21,Servicio de Salud Araucanía Sur,Perteneciente,Hospital,Establecimiento de Salud,SI,NO,Servicio de Salud,Primario-Secundario ( Por confirmar),Hospital de Carahue,9102,Carahue,Calle,602,Almagro,452555118,39814,No Aplica,No Aplica,No Aplica,Sin cambio,-38.712071,-73.160126,Público ,Vigente en operación ,Baja Complejidad,Atención Cerrada-Hospitalaria
21-116,121116,No Aplica,No Aplica,9,Región De La Araucanía,21,Servicio de Salud Araucanía Sur,Perteneciente,Hospital,Establecimiento de Salud,SI,NO,Servicio de Salud,Primario-Secundario ( Por confirmar),Hospital Dr. Arturo Hillerns Larrañaga (Saavedra),9116,Saavedra,Calle,42,Los Araucanos,452558112,39814,No Aplica,No Aplica,No Aplica,Sin cambio,-38.799293,-73.392623,Público ,Vigente en operación ,Baja Complejidad,Atención Cerrada-Hospitalaria
21-117,121117,No Aplica,No Aplica,9,Región De La Araucanía,21,Servicio de Salud Araucanía Sur,Perteneciente,Hospital,Establecimiento de Salud,SI,NO,Servicio de Salud,Terciario,Hospital de Pitrufquén,9114,Pitrufquén,Calle,1235,Manuel Rodríguez ,452557200,23012,No Aplica,No Aplica,No Aplica,Sin cambio,-38.989944,-72.643501,Público ,Vigente en operación ,Mediana Complejidad,Atención Cerrada-Hospitalaria
21-118,121118,No Aplica,No Aplica,9,Región De La Araucanía,21,Servicio de Salud Araucanía Sur,Perteneciente,Hospital,Establecimiento de Salud,SI,NO,Servicio de Salud,Primario-Secundario ( Por confirmar),Hospital de Toltén,9118,Toltén,Calle,636,Elvira Leal ,452552250,24436,No Aplica,No Aplica,No Aplica,Sin cambio,-39.176865,-73.164154,Público ,Vigente en operación ,Baja Complejidad,Atención Cerrada-Hospitalaria
21-119,121119,No Aplica,No Aplica,9,Región De La Araucanía,21,Servicio de Salud Araucanía Sur,Perteneciente,Hospital,Establecimiento de Salud,SI,NO,Servicio de Salud,Primario-Secundario ( Por confirmar),Hospital de Gorbea,9107,Gorbea,Calle,901,Carrera ,452552203,39814,No Aplica,No Aplica,No Aplica,Sin cambio,-39.105881,-72.668275,Público ,Vigente en operación ,Baja Complejidad,Atención Cerrada-Hospitalaria
21-120,121120,No Aplica,No Aplica,9,Región De La Araucanía,21,Servicio de Salud Araucanía Sur,Perteneciente,Hospital,Establecimiento de Salud,SI,NO,Servicio de Salud,Primario-Secundario ( Por confirmar),Hospital Familiar y Comunitario de Loncoche,9109,Loncoche,Calle,330,Carrera,452551750,20073,No Aplica,No Aplica,No Aplica,Sin cambio,-39.371026,-72.626231,Público ,Vigente en operación ,Baja Complejidad,Atención Cerrada-Hospitalaria
21-121,121121,No Aplica,No Aplica,9,Región De La Araucanía,21,Servicio de Salud Araucanía Sur,Perteneciente,Hospital,Establecimiento de Salud,SI,NO,Servicio de Salud,Terciario,Hospital de Villarrica,9120,Villarrica,Calle,460,San Martín ,452555250,39814,No Aplica,No Aplica,No Aplica,Sin cambio,-39.2777,-72.226793,Público ,Vigente en operación ,Mediana Complejidad,Atención Cerrada-Hospitalaria
21-200,121200,No Aplica,No Aplica,9,Región De La Araucanía,21,Servicio de Salud Araucanía Sur,Perteneciente,Hospital,Establecimiento de Salud,SI,NO,Delegados ,Primario-Secundario ( Por confirmar),Hospital San Francisco de Pucón (D),9115,Pucón,Calle,325,Uruguay ,452441177,39814,No Aplica,No Aplica,No Aplica,Sin cambio,-39.278833,-71.97429,Pendiente,Vigente en operación ,Baja Complejidad,Atención Cerrada-Hospitalaria
21-201,121201,No Aplica,No Aplica,9,Región De La Araucanía,21,Servicio de Salud Araucanía Sur,Perteneciente,Hospital,Establecimiento de Salud,SI,NO,Delegados ,Primario-Secundario ( Por confirmar),Hospital Makewe (D),9112,Padre Las Casas,Calle,S/N,Sector Maquehue,452352628,9863,No Aplica,No Aplica,No Aplica,Sin cambio,-38.772573,-72.61202,Pendiente,Vigente en operación ,Baja Complejidad,Atención Cerrada-Hospitalaria
21-205,121205,No Aplica,No Aplica,9,Región De La Araucanía,9,SEREMI De La Araucanía,No Perteneciente,Hospital,Establecimiento de Salud,NO,NO,Privado,Terciario,Hospital del Trabajador AChS de Temuco,9101,Temuco,Calle,324,Francia,452295700,39814,No Aplica,No Aplica,No Aplica,Sin cambio,-38.733675,-72.609481,Privado,Vigente en operación ,Pendiente,Atención Abierta-Ambulatoria
21-209,121209,No Aplica,No Aplica,9,Región De La Araucanía,9,SEREMI De La Araucanía,No Perteneciente,Hospital,Establecimiento de Salud,SI,NO,Privado,Terciario,Hospital Clínico de la Universidad Mayor,9101,Temuco,Avenida,01955,Gabriela,452310282,39814,No Aplica,No Aplica,No Aplica,Sin cambio,-38.73749,-72.64861,Privado,Vigente en operación ,Alta Complejidad,Atención Cerrada-Hospitalaria
22-100,122100,No Aplica,No Aplica,14,Región De Los Ríos,22,Servicio de Salud Valdivia,Perteneciente,Hospital,Establecimiento de Salud,SI,Autogestionado en Red ( EAR),Servicio de Salud,Terciario,Hospital Clínico Regional (Valdivia),14101,Valdivia,Calle,1003,Bueras ,632263390,30708,No Aplica,No Aplica,No Aplica,Sin cambio,-39.831807,-73.240138,Público ,Vigente en operación ,Alta Complejidad,Atención Cerrada-Hospitalaria
22-101,122101,No Aplica,No Aplica,14,Región De Los Ríos,22,Servicio de Salud Valdivia,Perteneciente,Hospital,Establecimiento de Salud,SI,NO,Servicio de Salud,Primario-Secundario ( Por confirmar),Hospital de Corral,14102,Corral,Avenida,200,Marinero Segundo Elías Huerta,632265580,39814,No Aplica,No Aplica,No Aplica,Sin cambio,-39.890215,-73.425706,Público ,Vigente en operación ,Baja Complejidad,Atención Cerrada-Hospitalaria
22-102,122102,No Aplica,No Aplica,14,Región De Los Ríos,22,Servicio de Salud Valdivia,Perteneciente,Hospital,Establecimiento de Salud,SI,NO,Servicio de Salud,Primario-Secundario ( Por confirmar),Hospital de Los Lagos,14104,Los Lagos,Calle,246,Lanín ,632264100,39814,No Aplica,No Aplica,No Aplica,Sin cambio,-39.863059,-72.809994,Público ,Vigente en operación ,Baja Complejidad,Atención Cerrada-Hospitalaria
22-103,122103,No Aplica,No Aplica,14,Región De Los Ríos,22,Servicio de Salud Valdivia,Perteneciente,Hospital,Establecimiento de Salud,SI,NO,Servicio de Salud,Primario-Secundario ( Por confirmar),Hospital de Lanco,14103,Lanco,Calle,S/N,Santiago ,632264650,37987,No Aplica,No Aplica,No Aplica,Sin cambio,-39.452096,-72.768424,Público ,Vigente en operación ,Baja Complejidad,Atención Cerrada-Hospitalaria
22-104,122104,No Aplica,No Aplica,14,Región De Los Ríos,22,Servicio de Salud Valdivia,Perteneciente,Hospital,Establecimiento de Salud,SI,NO,Servicio de Salud,Primario-Secundario ( Por confirmar),Hospital Juan Morey (La Unión),14201,La Unión,Calle,S/N,Arturo Prat ,642335200,39814,No Aplica,No Aplica,No Aplica,Sin cambio,-40.284563,-73.076009,Público ,Vigente en operación ,Baja Complejidad,Atención Cerrada-Hospitalaria
22-105,122105,No Aplica,No Aplica,14,Región De Los Ríos,22,Servicio de Salud Valdivia,Perteneciente,Hospital,Establecimiento de Salud,SI,NO,Servicio de Salud,Primario-Secundario ( Por confirmar),Hospital de Río Bueno,14204,Río Bueno,Calle,1521,Ejército Libertador ,642335350,39814,No Aplica,No Aplica,No Aplica,Sin cambio,-40.334842,-72.95047,Público ,Vigente en operación ,Baja Complejidad,Atención Cerrada-Hospitalaria
22-106,122106,No Aplica,No Aplica,14,Región De Los Ríos,22,Servicio de Salud Valdivia,Perteneciente,Hospital,Establecimiento de Salud,SI,NO,Servicio de Salud,Primario-Secundario ( Por confirmar),Hospital de Paillaco,14107,Paillaco,Calle,715,Gabriela Mistral,632264200,39814,No Aplica,No Aplica,No Aplica,Sin cambio,-40.071762,-72.866485,Público ,Vigente en operación ,Baja Complejidad,Atención Cerrada-Hospitalaria
22-200,122200,No Aplica,No Aplica,14,Región De Los Ríos,22,Servicio de Salud Valdivia,Perteneciente,Hospital,Establecimiento de Salud,SI,NO,Servicio de Salud,Primario-Secundario ( Por confirmar),Hospital Santa Elisa de San José de la Mariquina,14106,Mariquina,Calle,955,García Reyes ,632264280,31778,No Aplica,No Aplica,No Aplica,Pasa de ser Delegado a dependiente del SS Salud y cambia de nombre 31/12/2015,-39.541263,-72.965729,Público ,Vigente en operación ,Baja Complejidad,Atención Cerrada-Hospitalaria
22-201,122201,No Aplica,No Aplica,14,Región De Los Ríos,22,Servicio de Salud Valdivia,Perteneciente,Hospital,Establecimiento de Salud,SI,NO,Delegados ,Primario-Secundario ( Por confirmar),Hospital Padre Bernabé de Lucerna (Panguipulli) (D),14108,Panguipulli,Calle,342,Eduardo Cruz Coke,632242200,39814,No Aplica,No Aplica,No Aplica,Sin cambio,-39.640676,-72.342377,Pendiente,Vigente en operación ,Baja Complejidad,Atención Cerrada-Hospitalaria
23-100,123100,No Aplica,No Aplica,10,Región De Los Lagos,23,Servicio de Salud Osorno,Perteneciente,Hospital,Establecimiento de Salud,SI,Autogestionado en Red ( EAR),Servicio de Salud,Terciario,Hospital Base San José de Osorno,10301,Osorno,Calle,1765,Guillermo Buhler,642336200,39814,No Aplica,No Aplica,No Aplica,Sin cambio,-40.5883,-73.127785,Público ,Vigente en operación ,Alta Complejidad,Atención Cerrada-Hospitalaria
23-101,123101,No Aplica,No Aplica,10,Región De Los Lagos,23,Servicio de Salud Osorno,Perteneciente,Hospital,Establecimiento de Salud,SI,NO,Servicio de Salud,Terciario,Hospital de Purranque Dr. Juan Hepp Dubiau,10303,Purranque,Calle,468,21 de mayo,642335870,39814,No Aplica,No Aplica,No Aplica,Cambio de Complejidad de Baja a Mediana,-40.913644,-73.153883,Público ,Vigente en operación ,Mediana Complejidad,Atención Cerrada-Hospitalaria
23-102,123102,No Aplica,No Aplica,10,Región De Los Lagos,23,Servicio de Salud Osorno,Perteneciente,Hospital,Establecimiento de Salud,SI,NO,Servicio de Salud,Primario-Secundario ( Por confirmar),Hospital de Río Negro,10305,Río Negro,Calle,791,Arturo Prat ,642336888,39814,No Aplica,No Aplica,No Aplica,Sin cambio,-40.802425,-73.216531,Público ,Vigente en operación ,Baja Complejidad,Atención Cerrada-Hospitalaria
23-103,123103,No Aplica,No Aplica,10,Región De Los Lagos,23,Servicio de Salud Osorno,Perteneciente,Hospital,Establecimiento de Salud,SI,NO,Servicio de Salud,Primario-Secundario ( Por confirmar),Hospital de Puerto Octay,10302,Puerto Octay,Calle,601,Pedro Montt ,642335932,39814,No Aplica,No Aplica,No Aplica,Sin cambio,-40.972564,-72.883184,Público ,Vigente en operación ,Baja Complejidad,Atención Cerrada-Hospitalaria
23-104,123104,No Aplica,No Aplica,10,Región De Los Lagos,23,Servicio de Salud Osorno,Perteneciente,Hospital,Establecimiento de Salud,SI,NO,Servicio de Salud,Primario-Secundario ( Por confirmar),Hospital Futa Sruka Lawenche Kunko Mapu Mo,10306,San Juan de la Costa,Calle,S/N,Sector Lafquelmapu S/N Msión San Juan de la Costa,642335463,39814,No Aplica,No Aplica,No Aplica,Cambio de Nombre,-40.487955,-73.405041,Público ,Vigente en operación ,Baja Complejidad,Atención Cerrada-Hospitalaria
23-105,123105,No Aplica,No Aplica,10,Región De Los Lagos,23,Servicio de Salud Osorno,Perteneciente,Hospital,Establecimiento de Salud,SI,NO,Servicio de Salud,Primario-Secundario ( Por confirmar),Hospital Pu Mulen Quilacahuín,10307,San Pablo,Calle,S/N,Quilacahuín ,642335471,39814,No Aplica,No Aplica,No Aplica,Cambio de Nombre,-40.367661,-73.261509,Público ,Vigente en operación ,Baja Complejidad,Atención Cerrada-Hospitalaria
24-105,124105,No Aplica,No Aplica,10,Región De Los Lagos,24,Servicio de Salud Del Reloncaví,Perteneciente,Hospital,Establecimiento de Salud,SI,Autogestionado en Red ( EAR),Servicio de Salud,Terciario,Hospital de Puerto Montt,10101,Puerto Montt,Calle,63,Los Aromos,652490010,39814,No Aplica,No Aplica,No Aplica,Sin cambio,-41.44855,-72.957342,Público ,Vigente en operación ,Alta Complejidad,Atención Cerrada-Hospitalaria
24-110,124110,No Aplica,No Aplica,10,Región De Los Lagos,24,Servicio de Salud Del Reloncaví,Perteneciente,Hospital,Establecimiento de Salud,SI,NO,Servicio de Salud,Primario-Secundario ( Por confirmar),Hospital de Llanquihue,10107,Llanquihue,Calle,645,Erardo Werner,652326781,39814,No Aplica,No Aplica,No Aplica,Sin cambio,-41.256468,-73.010592,Público ,Vigente en operación ,Baja Complejidad,Atención Cerrada-Hospitalaria
24-115,124115,No Aplica,No Aplica,10,Región De Los Lagos,24,Servicio de Salud Del Reloncaví,Perteneciente,Hospital,Establecimiento de Salud,SI,NO,Servicio de Salud,Primario-Secundario ( Por confirmar),Hospital de Frutillar,10105,Frutillar,Calle,S/N,Las Piedras ,652326929,39814,No Aplica,No Aplica,No Aplica,Sin cambio,-41.138081,-73.031515,Público ,Vigente en operación ,Baja Complejidad,Atención Cerrada-Hospitalaria
24-120,124120,No Aplica,No Aplica,10,Región De Los Lagos,24,Servicio de Salud Del Reloncaví,Perteneciente,Hospital,Establecimiento de Salud,SI,NO,Servicio de Salud,Primario-Secundario ( Por confirmar),Hospital de Fresia,10104,Fresia,Calle,301,San José,652328749,39814,No Aplica,No Aplica,No Aplica,Sin cambio,-41.155319,-73.422972,Público ,Vigente en operación ,Baja Complejidad,Atención Cerrada-Hospitalaria
24-125,124125,No Aplica,No Aplica,10,Región De Los Lagos,24,Servicio de Salud Del Reloncaví,Perteneciente,Hospital,Establecimiento de Salud,SI,NO,Servicio de Salud,Primario-Secundario ( Por confirmar),Hospital de Maullín,10108,Maullín,Calle,136,Gabriela Mistral ,652326670,39814,No Aplica,No Aplica,No Aplica,Sin cambio,-41.616851,-73.598474,Público ,Vigente en operación ,Baja Complejidad,Atención Cerrada-Hospitalaria
24-130,124130,No Aplica,No Aplica,10,Región De Los Lagos,24,Servicio de Salud Del Reloncaví,Perteneciente,Hospital,Establecimiento de Salud,SI,NO,Servicio de Salud,Primario-Secundario ( Por confirmar),Hospital de Calbuco,10102,Calbuco,Calle,450,Eulogio Goycolea,652328840,39814,No Aplica,No Aplica,No Aplica,Sin cambio,-41.769823,-73.133167,Público ,Vigente en operación ,Baja Complejidad,Atención Cerrada-Hospitalaria
24-140,124140,No Aplica,No Aplica,10,Región De Los Lagos,24,Servicio de Salud Del Reloncaví,Perteneciente,Hospital,Establecimiento de Salud,SI,NO,Servicio de Salud,Primario-Secundario ( Por confirmar),Hospital de Palena,10404,Palena,Calle,641,Pudeto ,652741322,39814,No Aplica,No Aplica,No Aplica,Sin cambio,-43.617898,-71.808068,Público ,Vigente en operación ,Baja Complejidad,Atención Cerrada-Hospitalaria
24-145,124145,No Aplica,No Aplica,10,Región De Los Lagos,24,Servicio de Salud Del Reloncaví,Perteneciente,Hospital,Establecimiento de Salud,SI,NO,Servicio de Salud,Primario-Secundario ( Por confirmar),Hospital de Futaleufú,10402,Futaleufú,Calle,382,Balmaceda ,652326800,39814,No Aplica,No Aplica,No Aplica,Sin cambio,-43.183387,-71.869068,Público ,Vigente en operación ,Baja Complejidad,Atención Cerrada-Hospitalaria
25-100,125100,No Aplica,No Aplica,11,Región De Aysén del General Carlos Ibañez del Campo,25,Servicio de Salud Aisén,Perteneciente,Hospital,Establecimiento de Salud,SI,Autogestionado en Red ( EAR),Servicio de Salud,Terciario,Hospital Regional (Coihaique),11101,Coyhaique,Calle,68,Jorge Ibar,672262003,39814,No Aplica,No Aplica,No Aplica,Sin cambio,-45.568399,-72.073423,Público ,Vigente en operación ,Alta Complejidad,Atención Cerrada-Hospitalaria
25-101,125101,No Aplica,No Aplica,11,Región De Aysén del General Carlos Ibañez del Campo,25,Servicio de Salud Aisén,Perteneciente,Hospital,Establecimiento de Salud,SI,NO,Servicio de Salud,Terciario,Hospital de Puerto Aysén,11201,Aisén,Calle,180,Yussef Laibe,672262830,30317,No Aplica,No Aplica,No Aplica,Cambio de Complejidad y dirección,-45.408518,-72.683815,Público ,Vigente en operación ,Mediana Complejidad,Atención Cerrada-Hospitalaria
25-102,125102,No Aplica,No Aplica,11,Región De Aysén del General Carlos Ibañez del Campo,25,Servicio de Salud Aisén,Perteneciente,Hospital,Establecimiento de Salud,SI,NO,Servicio de Salud,Primario-Secundario ( Por confirmar),Hospital Dr. Leopoldo Ortega R. (Chile Chico),11401,Chile Chico,Calle,275,Lautaro ,672261411,39814,No Aplica,No Aplica,No Aplica,Sin cambio,-46.541656,-71.725104,Público ,Vigente en operación ,Baja Complejidad,Atención Cerrada-Hospitalaria
25-103,125103,No Aplica,No Aplica,11,Región De Aysén del General Carlos Ibañez del Campo,25,Servicio de Salud Aisén,Perteneciente,Hospital,Establecimiento de Salud,SI,NO,Servicio de Salud,Primario-Secundario ( Por confirmar),Hospital Lord Cochrane,11301,Cochrane,Calle,S/N,Bernardo O'Higgins ,672261331,39814,No Aplica,No Aplica,No Aplica,Sin cambio,-47.255574,-72.570726,Público ,Vigente en operación ,Baja Complejidad,Atención Cerrada-Hospitalaria
25-104,125104,No Aplica,No Aplica,11,Región De Aysén del General Carlos Ibañez del Campo,25,Servicio de Salud Aisén,Perteneciente,Hospital,Establecimiento de Salud,SI,NO,Servicio de Salud,Primario-Secundario ( Por confirmar),Hospital Dr. Jorge Ibar (Cisnes),11202,Cisnes,Calle,869,Rafael Sotomayor,672261302,39814,No Aplica,No Aplica,No Aplica,Sin cambio,-44.726032,-72.680784,Público ,Vigente en operación ,Baja Complejidad,Atención Cerrada-Hospitalaria
26-100,126100,No Aplica,No Aplica,12,Región De Magallanes y de la Antártica Chilena,26,Servicio de Salud Magallanes,Perteneciente,Hospital,Establecimiento de Salud,SI,Autogestionado en Red ( EAR),Servicio de Salud,Terciario,Hospital Clínico de Magallanes Dr. Lautaro Navarro Avaria,12101,Punta Arenas,Calle,1364,Los Flamencos,612293000,30636,No Aplica,No Aplica,No Aplica,Sin cambio,-53.12215,-70.896232,Público ,Vigente en operación ,Alta Complejidad,Atención Cerrada-Hospitalaria
26-101,126101,No Aplica,No Aplica,12,Región De Magallanes y de la Antártica Chilena,26,Servicio de Salud Magallanes,Perteneciente,Hospital,Establecimiento de Salud,SI,NO,Servicio de Salud,Terciario,Hospital Dr. Augusto Essmann Burgos ( Natales),12401,Natales,Calle,537,Ignacio Carrera Pinto ,612291012,39814,No Aplica,No Aplica,No Aplica,Sin cambio,-51.730327,-72.506046,Público ,Vigente en operación ,Mediana Complejidad,Atención Cerrada-Hospitalaria
26-102,126102,No Aplica,No Aplica,12,Región De Magallanes y de la Antártica Chilena,26,Servicio de Salud Magallanes,Perteneciente,Hospital,Establecimiento de Salud,SI,NO,Servicio de Salud,Primario-Secundario ( Por confirmar),Hospital Dr. Marco Antonio Chamorro ( Porvenir),12301,Porvenir,Calle,480,Carlos Wood ,612291800,39814,No Aplica,No Aplica,No Aplica,Sin cambio,-53.298162,-70.358384,Público ,Vigente en operación ,Baja Complejidad,Atención Cerrada-Hospitalaria
26-200,126200,No Aplica,No Aplica,12,Región De Magallanes y de la Antártica Chilena,12,SEREMI De Magallanes y la Antártica Chilena,No Perteneciente,Hospital,Establecimiento de Salud,SI,NO,Fuerzas Armadas y de Orden (FFAA),Terciario,Hospital FFAA Cirujano Guzmán,12101,Punta Arenas,Avenida,256,Bulnes,612207500,39814,No Aplica,No Aplica,No Aplica,Sin cambio,-53.154624,-70.901345,Fuerzas Armadas y de Orden,Vigente en operación ,Alta Complejidad,Atención Cerrada-Hospitalaria
26-204,126204,No Aplica,No Aplica,12,Región De Magallanes y de la Antártica Chilena,26,Servicio de Salud Magallanes,Perteneciente,Hospital,Establecimiento de Salud,SI,NO,Delegados ,Terciario,Hospital Naval (Puerto Williams) (D),12201,Cabo de Hornos,Calle,56,"Mc Intyre, Puerto Williams",612624328,39814,No Aplica,No Aplica,No Aplica,Sin cambio,-54.934374,-67.608895,Pendiente,Vigente en operación ,Mediana Complejidad,Atención Cerrada-Hospitalaria
26-704,126704,No Aplica,No Aplica,12,Región De Magallanes y de la Antártica Chilena,26,Servicio de Salud Magallanes,Perteneciente,Hospital,Establecimiento de Salud,SI,NO,Servicio de Salud,Primario-Secundario ( Por confirmar),Hospital Comunitario Cristina Calderón de Puerto Williams,12201,Cabo de Hornos,Calle,246,O'Higgins,612453636 Red 613636,39814,No Aplica,No Aplica,No Aplica,De Cecosf a Hospital de Baja Complejidad,-54.935209,-67.600393,Público ,Vigente en operación ,Baja Complejidad,Atención Cerrada-Hospitalaria
28-109,128109,No Aplica,No Aplica,8,Región Del Bíobío,28,Servicio de Salud Arauco,Perteneciente,Hospital,Establecimiento de Salud,SI,Invitados a ser EAR,Servicio de Salud,Terciario,Hospital Provincial Dr. Rafael Avaría (Curanilahue),8205,Curanilahue,Avenida,111,Bernardo O'Higgins ,412725480,39814,No Aplica,No Aplica,No Aplica,Sin cambio,-37.473676,-73.348238,Público ,Vigente en operación ,Mediana Complejidad,Atención Cerrada-Hospitalaria
28-110,128110,No Aplica,No Aplica,8,Región Del Bíobío,28,Servicio de Salud Arauco,Perteneciente,Hospital,Establecimiento de Salud,SI,NO,Servicio de Salud,Primario-Secundario ( Por confirmar),Hospital de Lebu,8201,Lebu,Calle,54,Dr. Octavio Orellana Fuentes,412724500,39814,No Aplica,No Aplica,No Aplica,Sin cambio,-37.610344,-73.659732,Público ,Vigente en operación ,Baja Complejidad,Atención Cerrada-Hospitalaria
28-111,128111,No Aplica,No Aplica,8,Región Del Bíobío,28,Servicio de Salud Arauco,Perteneciente,Hospital,Establecimiento de Salud,SI,NO,Servicio de Salud,Primario-Secundario ( Por confirmar),Hospital Intercultural Kallvu Llanka (Cañete),8203,Cañete,Calle,S/N,"Ruta P-60-R, Esquina Ruta P-520. Entrada Norte",412724100,39814,No Aplica,No Aplica,No Aplica,Sin cambio,-37.782106,-73.385438,Público ,Vigente en operación ,Baja Complejidad,Atención Cerrada-Hospitalaria
28-112,128112,No Aplica,No Aplica,8,Región Del Bíobío,28,Servicio de Salud Arauco,Perteneciente,Hospital,Establecimiento de Salud,SI,NO,Servicio de Salud,Primario-Secundario ( Por confirmar),Hospital de Contulmo,8204,Contulmo,Calle,1075,Las Araucarias,412724150,39814,No Aplica,No Aplica,No Aplica,Sin cambio,-38.020181,-73.232263,Público ,Vigente en operación ,Baja Complejidad,Atención Cerrada-Hospitalaria
28-113,128113,No Aplica,No Aplica,8,Región Del Bíobío,28,Servicio de Salud Arauco,Perteneciente,Hospital,Establecimiento de Salud,SI,NO,Servicio de Salud,Primario-Secundario ( Por confirmar),Hospital San Vicente de Arauco,8202,Arauco,Calle,S/N,Caupolicán ,412725820,39814,No Aplica,No Aplica,No Aplica,Sin cambio,-37.250717,-73.317625,Público ,Vigente en operación ,Baja Complejidad,Atención Cerrada-Hospitalaria
29-100,129100,No Aplica,No Aplica,9,Región De La Araucanía,29,Servicio de Salud Araucanía Norte,Perteneciente,Hospital,Establecimiento de Salud,SI,Autogestionado en Red ( EAR),Servicio de Salud,Terciario,Hospital Dr. Mauricio Heyermann (Angol),9201,Angol,Calle,752,Ilabaca ,452551111,39814,No Aplica,No Aplica,No Aplica,Sin cambio,-37.794444,-72.705669,Público ,Vigente en operación ,Alta Complejidad,Atención Cerrada-Hospitalaria
29-101,129101,No Aplica,No Aplica,9,Región De La Araucanía,29,Servicio de Salud Araucanía Norte,Perteneciente,Hospital,Establecimiento de Salud,SI,NO,Servicio de Salud,Primario-Secundario ( Por confirmar),Hospital de Purén,9208,Purén,Calle,1562,Imperial ,452555700,39814,No Aplica,No Aplica,No Aplica,Sin cambio,-38.038729,-73.074992,Público ,Vigente en operación ,Baja Complejidad,Atención Cerrada-Hospitalaria
29-103,129103,No Aplica,No Aplica,9,Región De La Araucanía,29,Servicio de Salud Araucanía Norte,Perteneciente,Hospital,Establecimiento de Salud,SI,NO,Servicio de Salud,Primario-Secundario ( Por confirmar),Hospital de Collipulli,9202,Collipulli,Calle,647,Bulnes ,452552378,39814,No Aplica,No Aplica,No Aplica,Sin cambio,-37.960078,-72.435982,Público ,Vigente en operación ,Baja Complejidad,Atención Cerrada-Hospitalaria
29-104,129104,No Aplica,No Aplica,9,Región De La Araucanía,29,Servicio de Salud Araucanía Norte,Perteneciente,Hospital,Establecimiento de Salud,SI,NO,Servicio de Salud,Terciario,Hospital Dr. Dino Stagno M.(Traiguén),9210,Traiguén,Calle,751,21 de Mayo,452555539,39814,No Aplica,No Aplica,No Aplica,Sin cambio,-38.24285,-72.671645,Público ,Vigente en operación ,Mediana Complejidad,Atención Cerrada-Hospitalaria
29-106,129106,No Aplica,No Aplica,9,Región De La Araucanía,29,Servicio de Salud Araucanía Norte,Perteneciente,Hospital,Establecimiento de Salud,SI,Autogestionado en Red ( EAR),Servicio de Salud,Terciario,Hospital San José de Victoria,9211,Victoria,Calle,1100,Dartnell,452555929,39814,No Aplica,No Aplica,No Aplica,Sin cambio,-38.233942,-72.340159,Público ,Vigente en operación ,Alta Complejidad,Atención Cerrada-Hospitalaria
29-107,129107,No Aplica,No Aplica,9,Región De La Araucanía,29,Servicio de Salud Araucanía Norte,Perteneciente,Hospital,Establecimiento de Salud,SI,NO,Servicio de Salud,Primario-Secundario ( Por confirmar),Hospital Dr. Oscar Hernández E.(Curacautín),9203,Curacautín,Calle,S/N,Serrano ,452551800,39814,No Aplica,No Aplica,No Aplica,Sin cambio,-38.439331,-71.891355,Público ,Vigente en operación ,Baja Complejidad,Atención Cerrada-Hospitalaria
29-108,129108,No Aplica,No Aplica,9,Región De La Araucanía,29,Servicio de Salud Araucanía Norte,Perteneciente,Hospital,Establecimiento de Salud,SI,NO,Servicio de Salud,Primario-Secundario ( Por confirmar),Hospital de Lonquimay,9205,Lonquimay,Calle,1060,O'Higgins,452557500,39814,No Aplica,No Aplica,No Aplica,Sin cambio,-38.455032,-71.369175,Público ,Vigente en operación ,Baja Complejidad,Atención Cerrada-Hospitalaria
33-150,133150,No Aplica,No Aplica,10,Región De Los Lagos,33,Servicio de Salud Chiloé,Perteneciente,Hospital,Establecimiento de Salud,SI,Autogestionado en Red ( EAR),Servicio de Salud,Terciario,Hospital de Castro,10201,Castro,Calle,852,Freire ,652650548,39814,No Aplica,No Aplica,No Aplica,Sin cambio,-42.477043,-73.76933,Público ,Vigente en operación ,Alta Complejidad,Atención Cerrada-Hospitalaria
33-155,133155,No Aplica,No Aplica,10,Región De Los Lagos,33,Servicio de Salud Chiloé,Perteneciente,Hospital,Establecimiento de Salud,SI,NO,Servicio de Salud,Terciario,Hospital de Ancud,10202,Ancud,Calle,301,Almirante Latorre ,652656356,39814,No Aplica,No Aplica,No Aplica,Sin cambio,-41.86523,-73.823832,Público ,Vigente en operación ,Mediana Complejidad,Atención Cerrada-Hospitalaria
33-160,133160,No Aplica,No Aplica,10,Región De Los Lagos,33,Servicio de Salud Chiloé,Perteneciente,Hospital,Establecimiento de Salud,SI,NO,Servicio de Salud,Primario-Secundario ( Por confirmar),Hospital Comunitario de Achao,10210,Quinchao,Calle,16,Riquelme ,652328800,39814,No Aplica,No Aplica,No Aplica,Sin cambio,-42.469562,-73.494599,Público ,Vigente en operación ,Baja Complejidad,Atención Cerrada-Hospitalaria
33-165,133165,No Aplica,No Aplica,10,Región De Los Lagos,33,Servicio de Salud Chiloé,Perteneciente,Hospital,Establecimiento de Salud,SI,NO,Servicio de Salud,Primario-Secundario ( Por confirmar),Hospital de Quellón,10208,Quellón,Calle,305,Dr. Ahues ,652326632,39814,No Aplica,No Aplica,No Aplica,Sin cambio,-43.115089,-73.617061,Público ,Vigente en operación ,Baja Complejidad,Atención Cerrada-Hospitalaria
33-170,133170,No Aplica,No Aplica,10,Región De Los Lagos,33,Servicio de Salud Chiloé,Perteneciente,Hospital,Establecimiento de Salud,SI,NO,Servicio de Salud,Primario-Secundario ( Por confirmar),Hospital Comunitario de Queilén,10207,Queilén,Calle,331,Rene Cárcamo,652328820,39814,No Aplica,No Aplica,No Aplica,Sin cambio,-42.890237,-73.473141,Público ,Vigente en operación ,Baja Complejidad,Atención Cerrada-Hospitalaria
12-950,200050,No Aplica,No Aplica,13,Región Metropolitana de Santiago,13,SEREMI Metropolitana de Santiago,No Perteneciente,Hospital,Establecimiento de Salud,SI,NO,Privado,Terciario,Hospital Clínico Universidad de Los Andes,13114,Las Condes,Avenida,2501,Plaza,226183000,41787,No Aplica,No Aplica,No Aplica,Sin cambio,-33.40656,-70.50017,Privado,Vigente en operación ,Alta Complejidad,Atención Cerrada-Hospitalaria
24-976,200076,No Aplica,No Aplica,10,Región De Los Lagos,24,Servicio de Salud Del Reloncaví,Perteneciente,Hospital,Establecimiento de Salud,SI,NO,Servicio de Salud,Primario-Secundario ( Por confirmar),Hospital de Chaitén,10401,Chaitén,Calle,153,Ignacio Carrera Pinto,652731344,41886,No Aplica,No Aplica,No Aplica,Sin cambio,-42.918615,-72.710261,Público ,Vigente en operación ,Baja Complejidad,Atención Abierta-Ambulatoria
24-904,200336,24-010,124010,10,Región De Los Lagos,24,Servicio de Salud Del Reloncaví,Perteneciente,Hospital de Dia Infanto Adolescente ,Establecimiento de Salud,NO,NO,Servicio de Salud,Secundario,Hospital de Día Infanto Adolescente Rayen Milla,10101,Puerto Montt,Calle,11,Quellon,652237562,42443,No Aplica,No Aplica,No Aplica,Sin cambio,-41.462193,-72.931243,Público ,Vigente en operación ,Mediana Complejidad,Atención Abierta-Ambulatoria
03-922,200563,No Aplica,No Aplica,2,Región De Antofagasta,2,SEREMI De Antofagasta,No Perteneciente,Hospital,Establecimiento de Salud,NO,NO,Privado,Terciario,Hospital Clínico Universidad de Antofagasta,2101,Antofagasta,Avenida,1962,Argentina,996210121,43482,No Aplica,No Aplica,No Aplica,Sin cambio,-23.660129,-70.395766,Privado,Vigente en operación ,Pendiente,Atención Abierta-Ambulatoria
21-932,200717,No Aplica,No Aplica,9,Región De La Araucanía,21,Servicio de Salud Araucanía Sur,Perteneciente,Hospital,Establecimiento de Salud,SI,NO,Servicio de Salud,Secundario,Complejo Asistencial Padre las Casas,9112,Padre Las Casas,Ruta,1398,"Ruta 194, Km 0,7 Localidad de Makewe",Red Minsal 450070,43956,No Aplica,No Aplica,No Aplica,Puesta en marcha adelantada por el Minsal por la Contingencia de COVID-19,-38.772902,-72.626722,Público ,Vigente en operación ,Mediana Complejidad,Atención Cerrada-Hospitalaria
01-923,201017,No Aplica,No Aplica,15,Región De Arica Parinacota,15,SEREMI De Arica y Parinacota,No Perteneciente,Hospital,Establecimiento de Salud,NO,NO,Gendamería,Pendiente,Complejo Penitenciario Femenino de Arica,15101,Arica,Ruta A-5 km,S/N KM 2063,Cuesta de  Ancha,582386433,44223,No Aplica,No Aplica,No Aplica,Sin cambio,-18.548566,-70.248665,Gendarmería,Vigente en operación ,Baja Complejidad,Atención Cerrada-Hospitalaria
201042,201042,No Aplica,No Aplica,14,Región De Los Ríos,22,Servicio de Salud Valdivia,Perteneciente,Hospital de Dia ,Establecimiento de Salud,NO,NO,Servicio de Salud,Secundario,HOSPITAL DE DIA ADULTO,14101,Valdivia,Calle,1075,TORNAGALEONES ,632239314, 20-07-2009,No Aplica,No Aplica,No Aplica,Sin cambio,-39.831662,-73.238406,Público ,Vigente en operación ,Mediana Complejidad,Atención Abierta-Ambulatoria
